"","lon","lat","zip","id","result","zipcode"
"1",12.5884558997958,55.6899169923173,1326,13373778,"Svanegade 22, 1328 København K, Denmark"," 1328 "
"2",12.5855007254056,55.6892819378427,1320,12898114,"Suensonsgade 55, 1322 København K, Denmark"," 1322 "
"3",12.5889132947193,55.6893615812451,1319,3323785,"Delfingade 54, 1325 København K, Denmark"," 1325 "
"4",12.5873528305574,55.687332296486,1319,6082765,"Sankt Pauls Gade 27, 1313 København K, Denmark"," 1313 "
"5",12.5900026591264,55.6886023441944,1319,10584180,"Hammerensgade 1, 1267 København K, Denmark"," 1267 "
"6",12.5904204774126,55.6867823516093,1319,4886630,"Store Kongensgade 108A, 1264 København K, Denmark"," 1264 "
"7",12.588744308634,55.6880687747101,1319,5189465,"Haregade 35, 1306 København K, Denmark"," 1306 "
"8",12.5890334365324,55.6870647100708,1319,934027,"Sankt Pauls Gade 10, 1313 København K, Denmark"," 1313 "
"9",12.5891339365191,55.687115837647,1319,6650991,"Sankt Pauls Gade 8, 1313 København K, Denmark"," 1313 "
"10",12.5893670494231,55.6868385848806,1319,1146870,"Sankt Pauls Gade 1C, 1313 København K, Denmark"," 1313 "
"11",12.5891789284267,55.6879163085184,1319,6083517,"Tigergade 7, 1321 København K, Denmark"," 1321 "
"12",12.5887495587884,55.6871213652413,1319,6972756,"Sankt Pauls Gade 12, 1313 København K, Denmark"," 1313 "
"13",12.5901018647363,55.6872358962642,1319,7200891,"Store Kongensgade 103, 1264 København K, Denmark"," 1264 "
"14",12.5888593054992,55.6880139716034,1319,4773901,"Borgergade 111, 1300 København K, Denmark"," 1300 "
"15",12.5896513235984,55.6898377419074,1319,2967207,"Grønningen 19, 1270 København K, Denmark"," 1270 "
"16",12.5895284051715,55.6879280393033,1319,3065491,"Tigergade 4-5, 1300 København K, Denmark"," 1300 "
"17",12.587657684234,55.6855052724223,1319,2410365,"Store Kongensgade 77A, 1264 København K, Denmark"," 1264 "
"18",12.5905351644531,55.6867612775347,1319,11485637,"Store Kongensgade 108A, 1264 København K, Denmark"," 1264 "
"19",12.5884162427353,55.686414766734,1319,1478476,"Fredericiagade 42, 1310 København K, Denmark"," 1310 "
"20",12.5867775115664,55.6885568977399,1319,6654160,"Haregade 31, 1320 København K, Denmark"," 1320 "
"21",12.5868622163265,55.6894095226801,1318,3336629,"Elsdyrsgade 30, 1324 København K, Denmark"," 1324 "
"22",12.5850209748109,55.6893817286713,1318,8551385,"Suensonsgade 59, 1322 København K, Denmark"," 1322 "
"23",12.5843082096719,55.6848946495321,1318,2403957,"Adelgade 45, 1304 København K, Denmark"," 1304 "
"24",12.5819363626497,55.6899334878153,1317,4154262,"Øster Voldgade 14, 1350 København K, Denmark"," 1350 "
"25",12.5791750000489,55.687643853843,1316,1996492,"Sølvgade 40D, 1307 København K, Denmark"," 1307 "
"26",12.5870548568399,55.6886333681398,1315,13595638,"Haregade 15, 1320 København K, Denmark"," 1320 "
"27",12.5880514218534,55.6702383000268,1314,9560397,"Lille Søndervoldstræde 2, 1421 København K, Denmark"," 1421 "
"28",12.5875966629864,55.6885152965246,1314,572637,"Haregade 11, 1320 København K, Denmark"," 1320 "
"29",12.5882056380196,55.6714404187398,1314,9573456,"Overgaden Neden Vandet 5A, 1414 København K, Denmark"," 1414 "
"30",12.5855310874955,55.6871120426913,1314,8590910,"Fredericiagade 78, 1310 København K, Denmark"," 1310 "
"31",12.5892494769071,55.6872268629367,1313,6206323,"Sankt Pauls Gade 8, 1313 København K, Denmark"," 1313 "
"32",12.587883802415,55.6865741413458,1313,10785935,"Fredericiagade 52, 1310 København K, Denmark"," 1310 "
"33",12.5871437380601,55.6870495810913,1313,11156323,"Olfert Fischers Gade 29, 1311 København K, Denmark"," 1311 "
"34",12.588215414815,55.6880553816448,1313,11541130,"Borgergade 111, 1300 København K, Denmark"," 1300 "
"35",12.5894018143845,55.6877033170582,1313,2985622,"Gernersgade 10, 1319 København K, Denmark"," 1319 "
"36",12.5902970562593,55.6861622937364,1313,4220849,"Fredericiagade 26, 1310 København K, Denmark"," 1310 "
"37",12.5885815624091,55.6876980648126,1313,5848077,"Borgergade 107, 1300 København K, Denmark"," 1300 "
"38",12.5864291291244,55.6864556370982,1313,12600878,"Klerkegade 2, 1308 København K, Denmark"," 1308 "
"39",12.5851367701505,55.689070970098,1313,1983456,"Timiansgade 17, 1329 København K, Denmark"," 1329 "
"40",12.5900361768025,55.6878959358683,1313,11217244,"Store Kongensgade 118, 1264 København K, Denmark"," 1264 "
"41",12.588682384462,55.6861706770396,1313,11940801,"Fredericiagade 39, 1300 København K, Denmark"," 1300 "
"42",12.5895120348019,55.6859540310142,1313,2141530,"Fredericiagade 33, 1310 København K, Denmark"," 1310 "
"43",12.5871325312615,55.6875315550796,1313,13611081,"Sankt Pauls Pl. 6, 1314 København K, Denmark"," 1314 "
"44",12.5887532726656,55.6871649933473,1313,3309580,"Sankt Pauls Gade 12, 1313 København K, Denmark"," 1313 "
"45",12.5851132977656,55.6886599020745,1313,5311435,"Gernersgade 55, 1319 København K, Denmark"," 1319 "
"46",12.5884963068856,55.6863602870349,1313,6096854,"Fredericiagade 40, 1310 København K, Denmark"," 1310 "
"47",12.5851153635481,55.6890443050108,1313,11447853,"Timiansgade 17, 1329 København K, Denmark"," 1329 "
"48",12.5896968179185,55.6873847962195,1311,10484504,"Gernersgade 3, 1319 København K, Denmark"," 1319 "
"49",12.5858565454495,55.6883882623454,1311,5551931,"Gernersgade 45, 1306 København K, Denmark"," 1306 "
"50",12.5881818954929,55.6858978176824,1311,10405487,"Hindegade 5, 1303 København K, Denmark"," 1303 "
"51",12.5894735615433,55.6875720368484,1311,3886600,"Gernersgade 8, 1319 København K, Denmark"," 1319 "
"52",12.5906042831134,55.6846792646533,1311,7701368,"Bredgade 49, 1260 København K, Denmark"," 1260 "
"53",12.5896446298255,55.6859153493524,1311,12510555,"Fredericiagade 31, 1310 København K, Denmark"," 1310 "
"54",12.5869353579606,55.688022949864,1311,9857178,"Gernersgade 33, 1319 København K, Denmark"," 1319 "
"55",12.5880962365526,55.6856341634296,1311,7432151,"Store Kongensgade 81B, 1264 København K, Denmark"," 1264 "
"56",12.5856911034735,55.6865336709584,1311,5072214,"Adelgade 113, 1304 København K, Denmark"," 1304 "
"57",12.589929285369,55.686255432922,1311,3460050,"Store Kongensgade 100, 1264 København K, Denmark"," 1264 "
"58",12.5889451213035,55.6863753962991,1311,7029562,"Fredericiagade 36, 1310 København K, Denmark"," 1310 "
"59",12.5879880234106,55.6878330909245,1311,13055828,"Gernersgade 23, 1319 København K, Denmark"," 1319 "
"60",12.5902916468808,55.6871870598927,1311,5485564,"Store Kongensgade 114, 1264 København K, Denmark"," 1264 "
"61",12.5885583286991,55.6875761156939,1311,12786674,"Borgergade 144, 1300 København K, Denmark"," 1300 "
"62",12.5884440844184,55.6871777663013,1311,13146663,"Sankt Pauls Gade 14, 1313 København K, Denmark"," 1313 "
"63",12.586600595837,55.6879106127943,1311,4724572,"Sankt Pauls Pl. 5, 1314 København K, Denmark"," 1314 "
"64",12.5953717498518,55.6770106702381,1310,2561650,"Strandgade 85, 1401 København K, Denmark"," 1401 "
"65",12.5826306195726,55.6916869615517,1310,392537,"Hjalmar Brantings Pl. 2, 2100 København Ø, Denmark"," 2100 "
"66",12.5882667456586,55.6862795466716,1310,1394879,"Fredericiagade 39, 1310 København K, Denmark"," 1310 "
"67",12.5908508598405,55.684142382687,1310,12619474,"Frederiksgade 18, 1265 København K, Denmark"," 1265 "
"68",12.5905136929877,55.6866073589391,1310,7878902,"Store Kongensgade 108D, 1264 København K, Denmark"," 1264 "
"69",12.5940937983832,55.684705306427,1310,1018821,"Amaliegade 20A, 1256 København K, Denmark"," 1256 "
"70",12.5913565109235,55.6869161440357,1310,327286,"Esplanaden 8C, 1263 København K, Denmark"," 1263 "
"71",12.5889936724657,55.6867023771743,1310,9895480,"Olfert Fischers Gade 6, 1311 København K, Denmark"," 1311 "
"72",12.587069239273,55.686918628712,1310,13137272,"Olfert Fischers Gade 27, 1311 København K, Denmark"," 1311 "
"73",12.5869592204885,55.6861073874648,1310,7796670,"Klerkegade 2, 1308 København K, Denmark"," 1308 "
"74",12.5877046807378,55.6854607580235,1310,5264840,"Store Kongensgade 77A, 1264 København K, Denmark"," 1264 "
"75",12.5897335359204,55.6847501859392,1310,4547693,"Frederiksgade 2, 1265 København K, Denmark"," 1265 "
"76",12.5866017626526,55.6832281470679,1310,12444502,"Store Kongensgade 45, 1264 København K, Denmark"," 1264 "
"77",12.5936960388256,55.6848113569863,1310,12505020,"Amalienborg Slotsplads 7A, 1257 København K, Denmark"," 1257 "
"78",12.5876703531886,55.6864645183777,1310,8340706,"Borgergade 132, 1300 København K, Denmark"," 1300 "
"79",12.5873039739636,55.68625334405,1310,7933595,"Borgergade 91, 1300 København K, Denmark"," 1300 "
"80",12.5889977414558,55.686705813794,1310,3915396,"Olfert Fischers Gade 6, 1311 København K, Denmark"," 1311 "
"81",12.5856548293334,55.6888520788816,1310,3029580,"Timiansgade 3, 1329 København K, Denmark"," 1329 "
"82",12.5861665479903,55.6873362489827,1310,1227050,"Olfert Fischers Gade 41, 1311 København K, Denmark"," 1311 "
"83",12.5936161840505,55.6864164923049,1310,10482502,"Amaliegade 29B, 1256 København K, Denmark"," 1256 "
"84",12.5838837354467,55.6871335175672,1310,13018662,"Rosengade 1, 1309 København K, Denmark"," 1309 "
"85",12.589035144907,55.6863053036783,1310,13706071,"Fredericiagade 34, 1310 København K, Denmark"," 1310 "
"86",12.5890600085317,55.687269892195,1310,8724454,"Sankt Pauls Gade 10, 1313 København K, Denmark"," 1313 "
"87",12.5914595502475,55.685158480742,1310,2956882,"Fredericiagade 15B, 1310 København K, Denmark"," 1310 "
"88",12.589871025364,55.6862402769885,1310,6935479,"Fredericiagade 30, 1310 København K, Denmark"," 1310 "
"89",12.5887090939965,55.6854699070546,1310,429897,"Store Kongensgade 86, 1264 København K, Denmark"," 1264 "
"90",12.5889952695515,55.6873510796208,1310,13404962,"Gernersgade 9, 1319 København K, Denmark"," 1319 "
"91",12.5872684528676,55.6859945363928,1310,12355018,"Borgergade 38, 1300 København K, Denmark"," 1300 "
"92",12.58358215626,55.6867032645464,1309,6047414,"Klerkegade 25C, 1308 København K, Denmark"," 1308 "
"93",12.585984723143,55.6863016216782,1308,3689865,"Klerkegade 2, 1308 København K, Denmark"," 1308 "
"94",12.5837008355597,55.6876293463335,1308,1199118,"Fredericiagade 75-77, 1306 København K, Denmark"," 1306 "
"95",12.5826693873195,55.6856454461381,1308,11434646,"Kronprinsessegade 21, 1306 København K, Denmark"," 1306 "
"96",12.5847318158181,55.6857170436962,1308,1113643,"Sølvgade 13-15, 1304 København K, Denmark"," 1304 "
"97",12.5854707271812,55.686080863526,1308,11037376,"Adelgade 59-61, 1304 København K, Denmark"," 1304 "
"98",12.5829370187928,55.685970628074,1308,1073548,"Sølvgade 31, 1307 København K, Denmark"," 1307 "
"99",12.583215303067,55.6875617638355,1308,5594971,"Rosengade 16, 1309 København K, Denmark"," 1309 "
"100",12.585203239916,55.6876450858316,1308,7689190,"Olfert Fischers Gade 42, 1311 København K, Denmark"," 1311 "
"101",12.5840846577445,55.6878891903714,1308,4313927,"Olfert Fischers Gade 53, 1311 København K, Denmark"," 1311 "
"102",12.5846447149114,55.6875543661486,1308,1379532,"Kronprinsessegade 41, 1306 København K, Denmark"," 1306 "
"103",12.5845145014776,55.6883760059176,1308,442372,"Sankt Pauls Gade 66, 1313 København K, Denmark"," 1313 "
"104",12.585353553097,55.6879383181147,1308,2659010,"Sankt Pauls Gade 50, 1306 København K, Denmark"," 1306 "
"105",12.584511344445,55.6876568154584,1308,9637086,"Olfert Fischers Gade 51, 1311 København K, Denmark"," 1311 "
"106",12.5850165455123,55.6859349192513,1308,4327528,"Adelgade 57, 1304 København K, Denmark"," 1304 "
"107",12.5851644719392,55.6844474342815,1307,10188144,"Dronningens Tværgade 32, 1302 København K, Denmark"," 1302 "
"108",12.573319529924,55.6910268138772,1307,5909336,"Wiedeweltsgade 42, 2100 København Ø, Denmark"," 2100 "
"109",12.5840167190573,55.6851765514841,1307,4110277,"Adelgade 45, 1304 København K, Denmark"," 1304 "
"110",12.5719964077264,55.6906537710366,1307,10760768,"Sølvgade 104, 1307 København K, Denmark"," 1307 "
"111",12.5718843867628,55.69025727181,1307,11196100,"Rørholmsgade 22, 1352 København K, Denmark"," 1352 "
"112",12.57340134845,55.6886768282557,1307,10816917,"Øster Farimagsgade 2D, 1353 København K, Denmark"," 1353 "
"113",12.5815209136158,55.6862795164684,1307,13111376,"Sølvgade 26, 1307 København K, Denmark"," 1307 "
"114",12.5739830953833,55.6886940026329,1307,7608475,"Sølvgade 83, 1307 København K, Denmark"," 1307 "
"115",12.5711887682582,55.6899867191516,1307,7392457,"Rørholmsgade 21, 1352 København K, Denmark"," 1352 "
"116",12.5717444323781,55.69022042353,1307,8891955,"Rørholmsgade 22, 1352 København K, Denmark"," 1352 "
"117",12.5805022113988,55.6855981689894,1307,1357858,"Kavalergangen, 1307 København K, Denmark"," 1307 "
"118",12.5731639964912,55.6907707799092,1307,4284608,"Webersgade 40, 2100 København Ø, Denmark"," 2100 "
"119",12.5814882341032,55.6863910702605,1307,6744987,"Sølvgade 26, 1307 København K, Denmark"," 1307 "
"120",12.5809213513857,55.685719633002,1307,8065460,"Damegangen, 1350 København K, Denmark"," 1350 "
"121",12.5852529705348,55.6865896862814,1307,3374599,"Klerkegade 8, 1308 København K, Denmark"," 1308 "
"122",12.5706243865569,55.6877010656397,1307,3531878,"Center for Sundhed og Samfund, 1353 København K, Denmark"," 1353 "
"123",12.5814272931857,55.6861039616236,1307,10676457,"Sølvgade 26-28, 1307 København K, Denmark"," 1307 "
"124",12.5823937751679,55.6866810099075,1307,1325035,"Rigensgade 4, 1316 København K, Denmark"," 1316 "
"125",12.5735654881869,55.6884818134262,1307,5667770,"Øster Farimagsgade 2D, 1353 København K, Denmark"," 1353 "
"126",12.5818894737247,55.6882633144308,1307,4353943,"Øster Voldgade 10, 1350 København K, Denmark"," 1350 "
"127",12.5723789779811,55.6912382964942,1307,8480929,"Øster Søgade 44, 2100 København Ø, Denmark"," 2100 "
"128",12.5742375500795,55.6891386557962,1307,6459616,"Øster Farimagsgade 17, 1353 København K, Denmark"," 1353 "
"129",12.5731675591007,55.6908298438238,1307,11558705,"Wiedeweltsgade 41, 2100 København Ø, Denmark"," 2100 "
"130",12.5814160172997,55.6870775267988,1307,13195382,"Sølvgade 30A, 1307 København K, Denmark"," 1307 "
"131",12.5703865224026,55.689413858296,1307,2393625,"Gammeltoftsgade 21, 1355 København K, Denmark"," 1355 "
"132",12.5813518094488,55.6886741916566,1307,2742184,"Øster Voldgade 10, 1350 København K, Denmark"," 1350 "
"133",12.5847481581449,55.6863629114775,1307,1396037,"Klerkegade 7, 1308 København K, Denmark"," 1308 "
"134",12.5864286727958,55.6843173673857,1307,7360815,"Borgergade 20, 1300 København K, Denmark"," 1300 "
"135",12.5715249257343,55.6906519924119,1307,6895360,"Sølvgade 105, 1307 København K, Denmark"," 1307 "
"136",12.5731134276573,55.6894808861419,1307,6862501,"Rørholmsgade 6, 1352 København K, Denmark"," 1352 "
"137",12.5742359834512,55.6889207705076,1307,967483,"Øster Farimagsgade 17, 1353 København K, Denmark"," 1353 "
"138",12.5824729120099,55.6862051627957,1307,1717719,"Sølvgade 31, 1307 København K, Denmark"," 1307 "
"139",12.5708794995332,55.6894608739665,1307,49122,"Gammeltoftsgade 18, 1355 København K, Denmark"," 1355 "
"140",12.5850895601534,55.6845741375611,1307,6243480,"Dronningens Tværgade 34, 1302 København K, Denmark"," 1302 "
"141",12.5806132071177,55.6871316642671,1307,4864328,"Sølvgade 38A, 1307 København K, Denmark"," 1307 "
"142",12.5738360504215,55.6890061722305,1307,6435679,"Øster Farimagsgade 17, 1353 København K, Denmark"," 1353 "
"143",12.5853371676106,55.6847803306536,1307,863525,"Dronningens Tværgade 38, 1302 København K, Denmark"," 1302 "
"144",12.5818175807853,55.6853280487842,1307,2835999,"Damegangen, 1350 København K, Denmark"," 1350 "
"145",12.5727136455583,55.6896176597068,1307,7446793,"Rørholmsgade 12, 1352 København K, Denmark"," 1352 "
"146",12.5841657826887,55.6868804140626,1307,12197356,"Kronprinsessegade 56, 1306 København K, Denmark"," 1306 "
"147",12.5748817678004,55.6905602880221,1307,7804868,"Jens Juels Gade 3, 2100 København Ø, Denmark"," 2100 "
"148",12.5826747261585,55.6870223744439,1307,988410,"Klerkegade 33, 1308 København K, Denmark"," 1308 "
"149",12.5841057394139,55.6863861842572,1307,12129506,"Kronprinsessegade 54, 1306 København K, Denmark"," 1306 "
"150",12.5714347403082,55.6895562202566,1307,986871,"Ole Suhrs Gade 19, 1354 København K, Denmark"," 1354 "
"151",12.5801874722145,55.6868012413803,1307,9768188,"Sølvgade 38, 1307 København K, Denmark"," 1307 "
"152",12.5731550678937,55.6886955115834,1307,967487,"Ole Suhrs Gade 1, 1354 København K, Denmark"," 1354 "
"153",12.5825316799973,55.6869063220724,1307,10324762,"Rigensgade 9, 1307 København K, Denmark"," 1307 "
"154",12.5695811010661,55.6862471971165,1307,9243349,"Øster Farimagsgade 3, 1353 København K, Denmark"," 1353 "
"155",12.5725583719791,55.690946545854,1307,3770345,"Webersgade 54, 2100 København Ø, Denmark"," 2100 "
"156",12.5817608421209,55.6876864686985,1307,11654502,"Øster Voldgade 10, 1350 København K, Denmark"," 1350 "
"157",12.5720290152161,55.6907191859294,1307,6816093,"Sølvgade 104, 1307 København K, Denmark"," 1307 "
"158",12.5855768941761,55.6887440876584,1306,6276563,"Kronprinsessegade 57A, 1306 København K, Denmark"," 1306 "
"159",12.5845332311941,55.6895206198383,1306,9329335,"Rigensgade 27, 1316 København K, Denmark"," 1316 "
"160",12.5871738914519,55.6852134762348,1306,7724837,"Borgergade 28, 1300 København K, Denmark"," 1300 "
"161",12.5842345861412,55.6853349061395,1306,9207220,"Adelgade 49, 1304 København K, Denmark"," 1304 "
"162",12.5838815857964,55.687117292529,1306,7002151,"Rosengade 1, 1309 København K, Denmark"," 1309 "
"163",12.5832455255367,55.6860465057621,1306,152326,"Kronprinsessegade 25, 1306 København K, Denmark"," 1306 "
"164",12.5823610937268,55.6844424009497,1306,3400053,"Kronprinsessegade 32, 1306 København K, Denmark"," 1306 "
"165",12.5853314823432,55.6880067299525,1306,12637620,"Sankt Pauls Gade 50, 1306 København K, Denmark"," 1306 "
"166",12.5865137604698,55.6890158262549,1306,10046781,"Suensonsgade 49, 1322 København K, Denmark"," 1322 "
"167",12.584047813404,55.6864021250156,1306,2618502,"Kronprinsessegade 54, 1306 København K, Denmark"," 1306 "
"168",12.58424826182,55.686445610509,1306,2235022,"Kronprinsessegade 54, 1306 København K, Denmark"," 1306 "
"169",12.5852731814976,55.6884798553898,1306,11694242,"Krusemyntegade 4, 1318 København K, Denmark"," 1318 "
"170",12.5838773779803,55.6868136616883,1306,8230811,"Klerkegade 23, 1308 København K, Denmark"," 1308 "
"171",12.5822579908394,55.6831068631958,1306,13105684,"Adelgade 5, 1304 København K, Denmark"," 1304 "
"172",12.5862669760255,55.6892427954427,1306,9358591,"Kronprinsessegade 63, 1306 København K, Denmark"," 1306 "
"173",12.5854477062806,55.6855477971007,1304,7352114,"Sølvgade 9, 1307 København K, Denmark"," 1307 "
"174",12.5863286911673,55.6876944537709,1304,1306982,"Sankt Pauls Gade 42, 1313 København K, Denmark"," 1313 "
"175",12.5846626431945,55.6853222763362,1304,10777364,"Adelgade 49-51, 1304 København K, Denmark"," 1304 "
"176",12.5847800343474,55.6848095516169,1304,6081093,"Dronningens Tværgade 42, 1302 København K, Denmark"," 1302 "
"177",12.5863512252956,55.6875939284606,1304,6546961,"Sankt Pauls Pl. 1, 1314 København K, Denmark"," 1314 "
"178",12.5832778491194,55.6853112399487,1304,483970,"Kronprinsessegade 46A, 1306 København K, Denmark"," 1306 "
"179",12.5834661923231,55.6863420423529,1304,5311940,"Sølvgade 14, 1307 København K, Denmark"," 1307 "
"180",12.5845375840424,55.6866533646181,1304,13503701,"Klerkegade 12, 1308 København K, Denmark"," 1308 "
"181",12.5850057232227,55.685413683726,1304,4546905,"Sølvgade 11, 1304 København K, Denmark"," 1304 "
"182",12.5852004309093,55.6860404737815,1304,12269772,"Adelgade 59, 1304 København K, Denmark"," 1304 "
"183",12.5857867415373,55.6842400443349,1304,13546771,"Borgergade 20, 1300 København K, Denmark"," 1300 "
"184",12.5828509864422,55.6821158792767,1304,11351287,"Gothersgade 32, 1123 København K, Denmark"," 1123 "
"185",12.5864130781226,55.6865745712965,1304,8531022,"Adelgade 106, 1304 København K, Denmark"," 1304 "
"186",12.5853590865942,55.6877131378008,1304,7384131,"Olfert Fischers Gade 42, 1311 København K, Denmark"," 1311 "
"187",12.5860027043637,55.6847576085996,1304,7118815,"Borgergade 17-19, 1300 København K, Denmark"," 1300 "
"188",12.5826602656894,55.682372141428,1304,10530494,"Gothersgade 42, 1123 København K, Denmark"," 1123 "
"189",12.5828005516069,55.6831728322117,1304,10027360,"Adelgade 5, 1304 København K, Denmark"," 1304 "
"190",12.5853219027436,55.6856830459355,1304,7012899,"Borgergade 27, 1300 København K, Denmark"," 1300 "
"191",12.590482827706,55.6880596082417,1303,6741722,"Hammerensgade 4, 1267 København K, Denmark"," 1267 "
"192",12.587297720268,55.6828321394418,1303,4474073,"Dronningens Tværgade 7B, 1302 København K, Denmark"," 1302 "
"193",12.5887207275841,55.6865507062739,1303,6101173,"Olfert Fischers Gade 3, 1311 København K, Denmark"," 1311 "
"194",12.5893133200842,55.6860964652423,1303,7869647,"Fredericiagade 33A, 1310 København K, Denmark"," 1310 "
"195",12.5894339706271,55.6814581178977,1303,1093342,"Store Strandstræde 21, 1255 København K, Denmark"," 1255 "
"196",12.5853462415576,55.6834692112106,1302,9461808,"Borgergade 16, 1300 København K, Denmark"," 1300 "
"197",12.5891248321665,55.6828416866053,1302,5248054,"Bredgade 37, 1260 København K, Denmark"," 1260 "
"198",12.5859351416778,55.6841332436249,1302,2871005,"Dronningens Tværgade 30, 1302 København K, Denmark"," 1302 "
"199",12.585174317058,55.684047609716,1302,2992311,"Borgergade 15F, 1300 København K, Denmark"," 1300 "
"200",12.5853384140564,55.685350605161,1302,8567123,"Sølvgade 7, 1307 København K, Denmark"," 1307 "
"201",12.582258417995,55.6856048409567,1302,5549095,"Kronprinsessegade 21, 1306 København K, Denmark"," 1306 "
"202",12.5826218976142,55.6841745780526,1302,4283585,"Kronprinsessegade 28A, 1306 København K, Denmark"," 1306 "
"203",12.5885803569131,55.682669048191,1302,7488260,"Bredgade 33A, 1260 København K, Denmark"," 1260 "
"204",12.5845125006564,55.6840176615091,1302,2368744,"Dronningens Tværgade 23, 1302 København K, Denmark"," 1302 "
"205",12.5841034709345,55.6824366992761,1302,11331658,"Borgergade 12, 1123 København K, Denmark"," 1123 "
"206",12.5852029197657,55.6838265614245,1302,13034305,"Borgergade 16-18, 1300 København K, Denmark"," 1300 "
"207",12.5864688084807,55.6838233196551,1302,8198947,"Dronningens Tværgade 22, 1302 København K, Denmark"," 1302 "
"208",12.5825906931863,55.6829996399058,1302,5886905,"Adelgade 5, 1304 København K, Denmark"," 1304 "
"209",12.5836796552795,55.6860528957237,1302,8506812,"Sølvgade 10, 1307 København K, Denmark"," 1307 "
"210",12.5851885542331,55.6837161370384,1302,9387946,"Borgergade 16-18, 1300 København K, Denmark"," 1300 "
"211",12.5823197173976,55.6848333119886,1302,7453869,"Kronprinsessegade 15, 1306 København K, Denmark"," 1306 "
"212",12.5825668855004,55.6846895457382,1302,11556623,"Kronprinsessegade 38, 1306 København K, Denmark"," 1306 "
"213",12.586893966641,55.6842498421871,1302,13186237,"Store Kongensgade 59E, 1264 København K, Denmark"," 1264 "
"214",12.5864601875151,55.6871351792368,1302,9972459,"Adelgade 108, 1304 København K, Denmark"," 1304 "
"215",12.5850647311205,55.6826038013811,1302,6989248,"Borgergade 6, 1300 København K, Denmark"," 1300 "
"216",12.5866636755767,55.6830025951781,1302,8199149,"Store Kongensgade 42, 1264 København K, Denmark"," 1264 "
"217",12.5865496960913,55.6828850228002,1302,3103080,"Store Kongensgade 40, 1264 København K, Denmark"," 1264 "
"218",12.5854270017419,55.685863266931,1302,3446080,"Adelgade 52, 1304 København K, Denmark"," 1304 "
"219",12.5860949025293,55.6854374606469,1302,2626778,"Sølvgade 5, 1307 København K, Denmark"," 1307 "
"220",12.5842044798699,55.6830782100822,1302,5871310,"Borgergade 9, 1300 København K, Denmark"," 1300 "
"221",12.5864120170025,55.6853886302484,1302,6329530,"Sølvgade 5, 1307 København K, Denmark"," 1307 "
"222",12.5831997926211,55.6832718890091,1302,6321116,"Adelgade 10-16, 1304 København K, Denmark"," 1304 "
"223",12.5836059385689,55.6830057585368,1302,8520682,"Borgergade 9, 1300 København K, Denmark"," 1300 "
"224",12.5885633621766,55.6844519749529,1302,1217731,"Store Kongensgade 72F, 1264 København K, Denmark"," 1264 "
"225",12.5892018808958,55.6869584808054,1300,4058203,"Sankt Pauls Gade 6, 1313 København K, Denmark"," 1313 "
"226",12.5885519889879,55.6875678540175,1300,13267498,"Borgergade 144, 1300 København K, Denmark"," 1300 "
"227",12.5848694443908,55.6838271799319,1300,722641,"Borgergade 15C, 1300 København K, Denmark"," 1300 "
"228",12.5895948297944,55.6887415645985,1300,5828304,"Store Kongensgade 113, 1264 København K, Denmark"," 1264 "
"229",12.588134740866,55.6862743377849,1300,6289482,"Fredericiagade 39, 1310 København K, Denmark"," 1310 "
"230",12.5886017015395,55.6868174676846,1300,5017503,"Olfert Fischers Gade 8, 1311 København K, Denmark"," 1311 "
"231",12.5887175636387,55.6869790331092,1300,9503434,"Sankt Pauls Gade 7, 1313 København K, Denmark"," 1313 "
"232",12.5882600672598,55.6861234926819,1300,6469958,"Hindegade 4, 1303 København K, Denmark"," 1303 "
"233",12.5870777349767,55.6846438389689,1300,4703683,"Store Kongensgade 61A, 1264 København K, Denmark"," 1264 "
"234",12.5885023521856,55.6858755170888,1300,12923065,"Hindegade 3, 1303 København K, Denmark"," 1303 "
"235",12.5859940719063,55.6837542675528,1300,2266670,"Dronningens Tværgade 21, 1302 København K, Denmark"," 1302 "
"236",12.589199081362,55.6882613561623,1300,5087354,"Vice-Admiral Edouard Suenson, O2, 1322 København, Denmark"," 1322 "
"237",12.588070603093,55.6874708271474,1300,12949841,"Rævegade 19, 1315 København K, Denmark"," 1315 "
"238",12.587155313026,55.6839282071503,1300,4523603,"Store Kongensgade 49, 1264 København K, Denmark"," 1264 "
"239",12.5912706502341,55.6880040709192,1270,4630571,"Bornholmsgade 6, 1266 København K, Denmark"," 1266 "
"240",12.5885825167865,55.6903790537588,1270,1859965,"Store Kongensgade 141, 1264 København K, Denmark"," 1264 "
"241",12.5911614592882,55.6875057366262,1270,13672663,"Bornholmsgade 2, 1263 København K, Denmark"," 1263 "
"242",12.5910366226983,55.6879436537788,1270,9288143,"Bornholmsgade 6, 1266 København K, Denmark"," 1266 "
"243",12.5949787975678,55.6917000252545,1270,7414268,"Kastellet 102, 2100 København Ø, Denmark"," 2100 "
"244",12.5886165224522,55.68873056232,1268,6072931,"Elsdyrsgade 5, 1324 København K, Denmark"," 1324 "
"245",12.5893500123047,55.689619637283,1268,6014051,"Store Kongensgade 130, 1264 København K, Denmark"," 1264 "
"246",12.5910408522777,55.6878121007797,1267,5894858,"Bornholmsgade 4, 1266 København K, Denmark"," 1266 "
"247",12.5909214803189,55.6883482855551,1266,7608068,"Hammerensgade 6, 1267 København K, Denmark"," 1267 "
"248",12.5920585624826,55.6880447789464,1266,13597476,"Grønningen 3A, 1270 København K, Denmark"," 1270 "
"249",12.5908701153284,55.6885274009722,1266,7991735,"Hammerensgade 5, 1267 København K, Denmark"," 1267 "
"250",12.5920011922394,55.6916988416659,1266,13220285,"Kastellet 50, 2100 København Ø, Denmark"," 2100 "
"251",12.5932893519673,55.6866117198516,1266,6949817,"Bredgade 68B, 1260 København K, Denmark"," 1260 "
"252",12.5911619548923,55.6829312460489,1265,947832,"Amaliegade 11B, 1256 København K, Denmark"," 1256 "
"253",12.5880738781284,55.6850742427367,1265,2616487,"Store Kongensgade 71, 1264 København K, Denmark"," 1264 "
"254",12.586220325839,55.6831876208403,1264,7057817,"Landgreven 2, 1301 København K, Denmark"," 1301 "
"255",12.5891664068352,55.6847435426832,1264,12100686,"Frederiksgade 4, 1265 København K, Denmark"," 1265 "
"256",12.5880173208881,55.6841249832569,1264,10286588,"Store Kongensgade 68B, 1264 København K, Denmark"," 1264 "
"257",12.5891625396888,55.6856947598037,1264,1282500,"Store Kongensgade 90, 1264 København K, Denmark"," 1264 "
"258",12.5896837213976,55.6867932460694,1264,4323617,"Sankt Pauls Gade 4, 1313 København K, Denmark"," 1313 "
"259",12.5888750315487,55.6851994140023,1264,11727177,"Frederiksgade 1, 1265 København K, Denmark"," 1265 "
"260",12.5863577545764,55.6852384603035,1264,6379112,"Borgergade 25, 1300 København K, Denmark"," 1300 "
"261",12.586785304224,55.68314964422,1264,13227917,"Store Kongensgade 46, 1264 København K, Denmark"," 1264 "
"262",12.5903086963245,55.6873728704337,1264,3102221,"Store Kongensgade 116A, 1264 København K, Denmark"," 1264 "
"263",12.5898289311754,55.6848274115258,1264,4103013,"Marmorkirken, 1265 København K, Denmark"," 1265 "
"264",12.5868791950323,55.6862568668543,1264,11268198,"Borgergade 91, 1300 København K, Denmark"," 1300 "
"265",12.5873636336994,55.6860903561385,1264,8076907,"Borgergade 38, 1300 København K, Denmark"," 1300 "
"266",12.585975726347,55.6842636400731,1264,7345554,"Borgergade 20, 1300 København K, Denmark"," 1300 "
"267",12.5812440565301,55.6916677788909,1264,1182819,"Stockholmsgade 45, 2100 København Ø, Denmark"," 2100 "
"268",12.586084219889,55.6844084821989,1264,4443604,"Borgergade 20, 1300 København K, Denmark"," 1300 "
"269",12.5880123356003,55.6839954797247,1264,6623229,"Store Kongensgade 68B, 1264 København K, Denmark"," 1264 "
"270",12.5889968873125,55.6850737297423,1264,5008578,"Frederiksgade 4, 1265 København K, Denmark"," 1265 "
"271",12.5874650246448,55.6834344610113,1264,6427961,"Dronningens Tværgade 11, 1302 København K, Denmark"," 1302 "
"272",12.5893507043779,55.6853506611168,1264,12506073,"Frederiksgade 1, 1265 København K, Denmark"," 1265 "
"273",12.5864083084983,55.683819066686,1264,8977001,"Dronningens Tværgade 24, 1302 København K, Denmark"," 1302 "
"274",12.5858192444553,55.6823503403949,1264,1405739,"Store Kongensgade 21, 1264 København K, Denmark"," 1264 "
"275",12.5887129586776,55.6847901968686,1264,8317037,"Frederiksgade 4, 1265 København K, Denmark"," 1265 "
"276",12.5861492995828,55.6800489867866,1264,3110244,"Kongens Nytorv 9, 1050 København K, Denmark"," 1050 "
"277",12.5899031095172,55.6857175801963,1264,8023481,"Fredericiagade 29, 1310 København K, Denmark"," 1310 "
"278",12.5880787042317,55.6867176777088,1264,420589,"Olfert Fischers Gade 13, 1311 København K, Denmark"," 1311 "
"279",12.5905716990855,55.6866486765469,1264,6380440,"Store Kongensgade 108A, 1264 København K, Denmark"," 1264 "
"280",12.5966746816922,55.6898062002043,1264,1816543,"Churchillparken 6, 1263 København K, Denmark"," 1263 "
"281",12.5873408019833,55.686069518201,1264,11173927,"Borgergade 38, 1300 København K, Denmark"," 1300 "
"282",12.5873329373002,55.6853218507063,1264,6447505,"Store Kongensgade 75C, 1264 København K, Denmark"," 1264 "
"283",12.5894871827985,55.6879780989863,1264,9920099,"Tigergade 11-12, 1300 København K, Denmark"," 1300 "
"284",12.5862611676539,55.6840040298515,1264,7092767,"Dronningens Tværgade 26, 1302 København K, Denmark"," 1302 "
"285",12.584904480983,55.6824679516123,1264,11256837,"Gothersgade 8H, 1123 København K, Denmark"," 1123 "
"286",12.5885659842901,55.6867056190017,1264,6675518,"Olfert Fischers Gade 8-10, 1311 København K, Denmark"," 1311 "
"287",12.5888681325807,55.6837934062739,1264,7298442,"Dronningens Tværgade 4C, 1302 København K, Denmark"," 1302 "
"288",12.5896139799158,55.6864985000829,1264,645357,"Store Kongensgade 106, 1264 København K, Denmark"," 1264 "
"289",12.5880848358833,55.686796018781,1264,7230552,"Olfert Fischers Gade 13, 1311 København K, Denmark"," 1311 "
"290",12.5878770355135,55.6854795587899,1264,1281547,"Store Kongensgade 77A, 1264 København K, Denmark"," 1264 "
"291",12.5887553989211,55.6832313398832,1264,7852101,"Dronningens Tværgade 2A, 1302 København K, Denmark"," 1302 "
"292",12.5892486269676,55.6835839940471,1264,12897372,"Bredgade 41, 1260 København K, Denmark"," 1260 "
"293",12.5845842257879,55.6809206231632,1264,2543872,"Kongens Nytorv 30, 1050 København K, Denmark"," 1050 "
"294",12.5884339647231,55.6856789965154,1264,12667874,"Store Kongensgade 83A, 1264 København K, Denmark"," 1264 "
"295",12.5879366960472,55.6842815730818,1264,8245593,"Store Kongensgade 68, 1264 København K, Denmark"," 1264 "
"296",12.585924201818,55.6817687226349,1264,6018239,"Store Kongensgade 14D, 1264 København K, Denmark"," 1264 "
"297",12.5869677435199,55.6852376399168,1264,13158747,"Borgergade 28, 1300 København K, Denmark"," 1300 "
"298",12.5879462868741,55.6871110393865,1264,6572404,"Borgergade 99, 1300 København K, Denmark"," 1300 "
"299",12.5874069548679,55.6837052257072,1264,13351271,"Store Kongensgade 58, 1264 København K, Denmark"," 1264 "
"300",12.5878078238122,55.6824768330578,1264,1455294,"Store Kongensgade 40C, 1264 København K, Denmark"," 1264 "
"301",12.5888751104963,55.6856542948369,1264,1389257,"Store Kongensgade 90, 1264 København K, Denmark"," 1264 "
"302",12.5882684144743,55.6859107166323,1264,878739,"Hindegade 3, 1303 København K, Denmark"," 1303 "
"303",12.5890894127412,55.6856676393347,1264,13412683,"Store Kongensgade 90, 1264 København K, Denmark"," 1264 "
"304",12.5851665245692,55.6813190533644,1264,8038712,"Kongens Nytorv 26, 1050 København K, Denmark"," 1050 "
"305",12.5863750066456,55.6829120227483,1264,3385004,"Landgreven 10, 1300 København K, Denmark"," 1300 "
"306",12.5861028430371,55.6813575238617,1264,4433359,"Kongens Nytorv 16, 1050 København K, Denmark"," 1050 "
"307",12.5898514019478,55.6856918541266,1264,7164608,"Store Kongensgade 92C, 1264 København K, Denmark"," 1264 "
"308",12.588965315893,55.6846991969824,1264,8951911,"Frederiksgade 8, 1265 København K, Denmark"," 1265 "
"309",12.5893602776607,55.6809910280793,1264,7052083,"Store Strandstræde 18, 1255 København K, Denmark"," 1255 "
"310",12.5887051815395,55.6865690998199,1264,9443521,"Olfert Fischers Gade 3, 1311 København K, Denmark"," 1311 "
"311",12.5868372971271,55.681812733645,1264,6918865,"Palægade 3, 1261 København K, Denmark"," 1261 "
"312",12.591075279639,55.6876371611738,1264,8883702,"Bornholmsgade 1, 1266 København K, Denmark"," 1266 "
"313",12.589559645357,55.6895656058224,1264,12585740,"Store Kongensgade 128, 1264 København K, Denmark"," 1264 "
"314",12.5906616819244,55.6864534518085,1264,3757620,"Store Kongensgade 108E, 1264 København K, Denmark"," 1264 "
"315",12.5948512717296,55.6868733035441,1263,13597396,"Amaliegade 35B, 1256 København K, Denmark"," 1256 "
"316",12.5933808120219,55.6865202053441,1263,8729821,"Bredgade 68B, 1260 København K, Denmark"," 1260 "
"317",12.5956355258317,55.6882033499588,1263,13385436,"Esplanaden 48, 1263 København K, Denmark"," 1263 "
"318",12.591753340645,55.6877001717224,1263,11544494,"Esplanaden 7, 1263 København K, Denmark"," 1263 "
"319",12.592695631113,55.6887352796506,1263,12970081,"Grønningen 2, 1270 København K, Denmark"," 1270 "
"320",12.5920477037186,55.6877512549474,1263,12512520,"Esplanaden 7B, 1263 København K, Denmark"," 1263 "
"321",12.5953218582644,55.6881100185847,1263,3660433,"Ved Kongeporten, 1263 København K, Denmark"," 1263 "
"322",12.5963188918065,55.6868964969577,1263,6500628,"Amaliegade 48, 1256 København K, Denmark"," 1256 "
"323",12.5945917634141,55.6871064331509,1263,11218167,"Esplanaden 38B, 1260 København K, Denmark"," 1260 "
"324",12.5860678085574,55.6831317790129,1261,29205,"Landgreven 2, 1301 København K, Denmark"," 1301 "
"325",12.5884910664532,55.6825989967697,1261,3810997,"Bredgade 33A, 1260 København K, Denmark"," 1260 "
"326",12.5933395618819,55.6857821931181,1260,6585550,"Amaliegade 25A, 1256 København K, Denmark"," 1256 "
"327",12.5911173556829,55.6842458227635,1260,13158475,"Frederiksgade 18, 1265 København K, Denmark"," 1265 "
"328",12.5865506487067,55.6807269297036,1260,10464089,"Kongens Nytorv 3, 1051 København K, Denmark"," 1051 "
"329",12.588468602133,55.6824934818527,1260,4019877,"Bredgade 33A, 1260 København K, Denmark"," 1260 "
"330",12.5926520657563,55.687126255627,1260,7960548,"Bredgade 74, 1263 København K, Denmark"," 1263 "
"331",12.5908096538707,55.6866876385571,1260,7304999,"Store Kongensgade 110D, 1264 København K, Denmark"," 1264 "
"332",12.5912221208431,55.6876700988138,1260,13103540,"Bornholmsgade 2A, 1266 København K, Denmark"," 1266 "
"333",12.5919390923549,55.6851659206957,1260,3503073,"Fredericiagade 15C, 1310 København K, Denmark"," 1310 "
"334",12.5865745769873,55.6814094317506,1260,2025336,"Kongens Nytorv 6B, 1050 København K, Denmark"," 1050 "
"335",12.5924871950317,55.6855608196309,1260,2013525,"Fredericiagade 14A, 1310 København K, Denmark"," 1310 "
"336",12.591774497708,55.6861271036005,1260,7610002,"Bredgade 59-63, 1260 København K, Denmark"," 1260 "
"337",12.5946323560469,55.6847079200308,1256,7892890,"Amaliegade 22A, 1256 København K, Denmark"," 1256 "
"338",12.5934669306503,55.6860302874289,1256,10559619,"Amaliegade 25A, 1256 København K, Denmark"," 1256 "
"339",12.5951365259828,55.6869357294121,1256,6582876,"Amaliegade 35, 1256 København K, Denmark"," 1256 "
"340",12.5954140393465,55.6848157545054,1256,13494324,"Toldbodgade 55, 1253 København K, Denmark"," 1253 "
"341",12.5920891863444,55.6832545653075,1256,13690438,"Amaliegade 19B, 1256 København K, Denmark"," 1256 "
"342",12.5951255710063,55.6873676301832,1256,13588458,"Amaliegade 41A, 1256 København K, Denmark"," 1256 "
"343",12.5954961594727,55.6852870556642,1256,718903,"Toldbodgade 59, 1253 København K, Denmark"," 1253 "
"344",12.5971334010741,55.6847290462475,1256,504029,"Larsens Pl., 1253 København K, Denmark"," 1253 "
"345",12.5928829735032,55.6833494303251,1256,3222487,"Amalienborg Slotsplads 2A, 1257 København K, Denmark"," 1257 "
"346",12.593927458903,55.6850957216956,1256,821443,"Amaliegade 21, 1256 København K, Denmark"," 1256 "
"347",12.5875830807186,55.6818962028033,1255,6388201,"Bredgade 19, 1260 København K, Denmark"," 1260 "
"348",12.5899144813975,55.6819580381059,1255,9273342,"J.P.E. Hartmann, 1250 København K, Denmark"," 1250 "
"349",12.5890613624679,55.680905564767,1255,9247219,"Store Strandstræde 14, 1255 København K, Denmark"," 1255 "
"350",12.5911817420727,55.6824644616231,1255,8062338,"Amaliegade 3, 1256 København K, Denmark"," 1256 "
"351",12.5909687497733,55.6821410116907,1254,12269773,"Sankt Annæ Pl. 13, 1250 København K, Denmark"," 1250 "
"352",12.5897283284063,55.6817297364046,1254,12049187,"Sankt Annæ Pl. 4, 1250 København K, Denmark"," 1250 "
"353",12.5885630841691,55.6813731380784,1254,3270600,"Store Strandstræde 9A, 1255 København K, Denmark"," 1255 "
"354",12.5897209038388,55.6820607386575,1254,8242612,"Sankt Annæ Pl. 5A, 1250 København K, Denmark"," 1250 "
"355",12.5911647618196,55.6810714254375,1254,8242510,"Lille Strandstræde 20B, 1254 København K, Denmark"," 1254 "
"356",12.58973318577,55.6807983902497,1254,13483964,"Lille Strandstræde 12, 1254 København K, Denmark"," 1254 "
"357",12.5902963030194,55.6817309528758,1254,7828151,"J.P.E. Hartmann, 1250 København K, Denmark"," 1250 "
"358",12.5895607008852,55.6807718964864,1254,3245346,"Lille Strandstræde 9, 1254 København K, Denmark"," 1254 "
"359",12.5907362560492,55.6794336447102,1253,1397718,"Nyhavn 22, 1051 København K, Denmark"," 1051 "
"360",12.5923523589712,55.6813078144897,1253,3633153,"C.F. Tietgen, 1250 København K, Denmark"," 1250 "
"361",12.5893484367389,55.6860500922887,1253,1347514,"Fredericiagade 33A, 1310 København K, Denmark"," 1310 "
"362",12.5949887737419,55.6850891627622,1253,12648162,"Amaliegade 28B, 1256 København K, Denmark"," 1256 "
"363",12.5947278494632,55.6862115046061,1253,3341767,"Amaliegade 31A, 1256 København K, Denmark"," 1256 "
"364",12.5956036248848,55.6863709073302,1253,12482609,"Toldbodgade 95, 1253 København K, Denmark"," 1253 "
"365",12.5946675885049,55.6845820280457,1253,11171436,"Amaliegade 20C, 1256 København K, Denmark"," 1256 "
"366",12.5917689144667,55.681824303298,1253,6779095,"Amaliegade 4, 1256 København K, Denmark"," 1256 "
"367",12.592370478601,55.6792014177553,1253,9583827,"Nyhavn 42B, 1051 København K, Denmark"," 1051 "
"368",12.5919990780254,55.679516169056,1253,8215545,"Nyhavn 55, 1051 København K, Denmark"," 1051 "
"369",12.5922294645115,55.6811436219475,1253,11916170,"Sankt Annæ Pl. 22, 1250 København K, Denmark"," 1250 "
"370",12.5911788546227,55.6810900395903,1253,10702607,"Sankt Annæ Pl. 10C, 1250 København K, Denmark"," 1250 "
"371",12.5911410475002,55.6815345195476,1253,10647239,"Amaliegade 4, 1256 København K, Denmark"," 1256 "
"372",12.5929212821764,55.6800166574379,1253,1932695,"Kvæsthusgade 5B, 1251 København K, Denmark"," 1251 "
"373",12.5908525236207,55.6805084190009,1253,6953042,"Nyhavn 31G, 1051 København K, Denmark"," 1051 "
"374",12.5951113059043,55.6866184659276,1253,8491592,"Amaliegade 33, 1256 København K, Denmark"," 1256 "
"375",12.5910463708619,55.681334135947,1253,13535772,"Sankt Annæ Pl. 10B, 1250 København K, Denmark"," 1250 "
"376",12.594453937544,55.6820976292201,1253,198448,"Larsens Pl., 1253 København K, Denmark"," 1253 "
"377",12.5913146190704,55.6809988516241,1253,6980629,"Toldbodgade 19B, 1253 København K, Denmark"," 1253 "
"378",12.5923950151681,55.6816420282921,1251,1044483,"Sankt Annæ Pl. 17, 1250 København K, Denmark"," 1250 "
"379",12.5916467703819,55.6810881781897,1250,5716586,"Sankt Annæ Pl. 18B, 1250 København K, Denmark"," 1250 "
"380",12.5909322107155,55.6827548662164,1250,9848641,"Amaliegade 9, 1256 København K, Denmark"," 1256 "
"381",12.5774722545596,55.6726427832835,1220,5700427,"Vester Voldgade 123, 1552 København V, Denmark"," 1552 "
"382",12.5772717955642,55.6720963933024,1220,746533,"Christiansborggade 1, 1558 København V, Denmark"," 1558 "
"383",12.5732499590294,55.6777968853172,1211,13706635,"Nytorv 5, 1450 København K, Denmark"," 1450 "
"384",12.5755203960529,55.6769981879647,1211,8216309,"Kompagnistræde 21, 1208 København K, Denmark"," 1208 "
"385",12.5762789260486,55.6768219326629,1211,8419691,"Snaregade 7, 1202 København K, Denmark"," 1202 "
"386",12.5747170429919,55.6779938780046,1211,1390010,"Knabrostræde 3, 1210 København K, Denmark"," 1210 "
"387",12.5756282305291,55.6791039512921,1211,8563559,"Klosterstræde 12, 1157 København K, Denmark"," 1157 "
"388",12.5748303397931,55.6780346460215,1211,13535337,"Knabrostræde 3, 1210 København K, Denmark"," 1210 "
"389",12.576976872044,55.6758954699319,1210,26473,"Bertel Thorvaldsens Plads 3, 1218 København K, Denmark"," 1218 "
"390",12.5756145449576,55.6786412432511,1210,6285396,"Vimmelskaftet 30, 1161 København K, Denmark"," 1161 "
"391",12.5736392914524,55.6787138745652,1210,6509170,"Skoubogade 6, 1158 København K, Denmark"," 1158 "
"392",12.5743366557149,55.6789338590702,1209,7655525,"Jorcks Passage, 1159 København K, Denmark"," 1159 "
"393",12.5755124790652,55.6773125478763,1209,4337099,"Kompagnistræde 16, 1208 København K, Denmark"," 1208 "
"394",12.5747686280306,55.6779694167724,1209,13539018,"Knabrostræde 3, 1210 København K, Denmark"," 1210 "
"395",12.5757852200093,55.6787347474565,1209,13678200,"Vimmelskaftet 28, 1161 København K, Denmark"," 1161 "
"396",12.5741223176073,55.6787219280031,1209,1701316,"Vimmelskaftet 46, 1161 København K, Denmark"," 1161 "
"397",12.5762245379951,55.677131169655,1209,11788333,"Kompagnistræde 15B, 1208 København K, Denmark"," 1208 "
"398",12.5763000591385,55.6777258071333,1209,3228805,"Kompagnistræde 6, 1208 København K, Denmark"," 1208 "
"399",12.5754596285524,55.6788440737845,1209,5718027,"Klosterstræde 1, 1157 København K, Denmark"," 1157 "
"400",12.5749019488931,55.678829099227,1209,12893578,"Vimmelskaftet 36, 1161 København K, Denmark"," 1161 "
"401",12.5744008831829,55.6772663085553,1209,7117409,"Brolæggerstræde 11B, 1211 København K, Denmark"," 1211 "
"402",12.5751321387565,55.6776046776798,1209,13108244,"Brolæggerstræde 5, 1211 København K, Denmark"," 1211 "
"403",12.581669478735,55.684405086272,1208,1803362,"Kronprinsessegade 11, 1306 København K, Denmark"," 1306 "
"404",12.5720678330795,55.6785312781972,1208,1038813,"Gammeltorv 8, 1457 København K, Denmark"," 1457 "
"405",12.5764414039033,55.6777729876238,1208,6315268,"Kompagnistræde 4, 1208 København K, Denmark"," 1208 "
"406",12.5753685613862,55.6751298925171,1208,1224968,"Prinsens Palæ, København K, Denmark",NA
"407",12.5756703786349,55.6773785311621,1208,12881123,"Kompagnistræde 14B, 1208 København K, Denmark"," 1208 "
"408",12.5778276595217,55.6772133170945,1208,12163668,"Nybrogade 2F, 1203 København K, Denmark"," 1203 "
"409",12.5768863033013,55.6795961540571,1207,8584983,"Valkendorfsgade 16, 1151 København K, Denmark"," 1151 "
"410",12.5777576914409,55.6786745643342,1207,9027049,"Amagertorv 18-20, 1160 København K, Denmark"," 1160 "
"411",12.5761340319919,55.6776356222633,1207,1174634,"Badstuestræde 17, 1209 København K, Denmark"," 1209 "
"412",12.5781938196623,55.6763928836439,1207,1558401,"Bertel Thorvaldsens Plads 2, 1213 København K, Denmark"," 1213 "
"413",12.577157826928,55.6788711073201,1207,4140832,"Amagertorv 20, 1160 København K, Denmark"," 1160 "
"414",12.5768824035978,55.6774563065383,1207,4131552,"Naboløs 4, 1206 København K, Denmark"," 1206 "
"415",12.5773641347914,55.6785892912831,1206,3797497,"Amagertorv 23, 1160 København K, Denmark"," 1160 "
"416",12.5748673370193,55.6764353516495,1206,2535877,"Rådhusstræde 13, 1466 København K, Denmark"," 1466 "
"417",12.5769610952645,55.6771106891604,1205,1168880,"Snaregade 1, 1205 København K, Denmark"," 1205 "
"418",12.5776057072461,55.6776702291748,1205,8587985,"Gammel Strand 48, 1202 København K, Denmark"," 1202 "
"419",12.5752893691449,55.6772411647094,1204,12364375,"Knabrostræde 15, 1210 København K, Denmark"," 1210 "
"420",12.5756556147658,55.6752974626167,1204,6969266,"Prinsens Palæ, København K, Denmark",NA
"421",12.5805512882681,55.6774135028609,1204,12919829,"Ved Stranden 16, 1061 København K, Denmark"," 1061 "
"422",12.5763620596872,55.6757186525551,1204,10442672,"Stormbroen, 1220 København, Denmark"," 1220 "
"423",12.5766571892383,55.6756872390522,1203,7593509,"Christiansborg Ridebane 7, 1218 København K, Denmark"," 1218 "
"424",12.5757118220231,55.6770541192007,1203,11237351,"Knabrostræde 19, 1210 København K, Denmark"," 1210 "
"425",12.5751270753632,55.6758111621169,1203,26024,"Frederiksholms Kanal 6, 1220 København K, Denmark"," 1220 "
"426",12.5747681703262,55.6755891995123,1203,13440812,"Frederiksholms Kanal 6B, 1220 København K, Denmark"," 1220 "
"427",12.5783987307823,55.6773885801833,1203,13308805,"Gammel Strand 42, 1202 København K, Denmark"," 1202 "
"428",12.5762967032088,55.6779226166844,1202,13248539,"Kompagnistræde 4B, 1208 København K, Denmark"," 1208 "
"429",12.5775837104108,55.6787565737171,1202,13414885,"Amagertorv 20, 1160 København K, Denmark"," 1160 "
"430",12.5790786464904,55.6776393488268,1202,7840926,"Gammel Strand 34, 1202 København K, Denmark"," 1202 "
"431",12.579512302263,55.678519385915,1201,8413983,"Højbro Pl. 4, 1200 København K, Denmark"," 1200 "
"432",12.5784412725138,55.6783669772497,1201,7040037,"Amagertorv 11, 1160 København K, Denmark"," 1160 "
"433",12.5798620430394,55.6789844898009,1201,4280838,"Østergade 61, 1160 København K, Denmark"," 1160 "
"434",12.5768483641647,55.6783879254032,1201,6682389,"Amagertorv 29, 1160 København K, Denmark"," 1160 "
"435",12.5797895466395,55.6773727512657,1201,8509603,"Københavns Slot, 1218 København, Denmark"," 1218 "
"436",12.5813721864758,55.6784808356394,1200,729526,"Nikolaj Plads 28, 1067 København K, Denmark"," 1067 "
"437",12.5808463458817,55.6775034034177,1200,9322065,"Ved Stranden 16, 1061 København K, Denmark"," 1061 "
"438",12.5816526898601,55.677844138823,1200,11465364,"Admiralgade 20A, 1066 København K, Denmark"," 1066 "
"439",12.5792281545476,55.6784266915881,1200,8331843,"Læderstræde 1, 1201 København K, Denmark"," 1201 "
"440",12.5727028429472,55.6821557344806,1174,1106241,"Rosengården 9, 1174 København K, Denmark"," 1174 "
"441",12.572189294536,55.681451177596,1174,6365461,"Fiolstræde 13, 1171 København K, Denmark"," 1171 "
"442",12.5728324143067,55.6827182584185,1174,13595878,"Frederiksborggade 1, 1360 København K, Denmark"," 1360 "
"443",12.5726459594026,55.6815821848046,1174,9367064,"Fiolstræde 30, 1171 København K, Denmark"," 1171 "
"444",12.5728997654435,55.681997762754,1174,11387009,"Fiolstræde 36C, 1171 København K, Denmark"," 1171 "
"445",12.5715264052717,55.6816414479671,1174,345705,"Nørregade 28C, 1165 København K, Denmark"," 1165 "
"446",12.5723271886641,55.6814026694261,1174,10067660,"Fiolstræde 11, 1171 København K, Denmark"," 1171 "
"447",12.5719065561403,55.6853947122126,1174,3184030,"Gothersgade 137, 1123 København K, Denmark"," 1123 "
"448",12.573987796943,55.6820971790865,1174,7165969,"Kultorvet 5, 1175 København K, Denmark"," 1175 "
"449",12.572542788311,55.6813631690436,1174,6490272,"Fiolstræde 9-11, 1171 København K, Denmark"," 1171 "
"450",12.5731251762454,55.6829524123937,1173,617493,"Frederiksborggade 5A, 1360 København K, Denmark"," 1360 "
"451",12.5746839610007,55.6811645896366,1173,9624445,"Regensen, 1169 København K, Denmark"," 1169 "
"452",12.5746264081283,55.6816799327076,1173,2735951,"Købmagergade 59, 1150 København K, Denmark"," 1150 "
"453",12.5730920199678,55.6827917170098,1173,964454,"Frederiksborggade 1, 1360 København K, Denmark"," 1360 "
"454",12.5741876428642,55.6785448929476,1173,2913041,"Vimmelskaftet 47, 1161 København K, Denmark"," 1161 "
"455",12.578883718842,55.6836730739764,1173,13535025,"Damegangen, 1350 København K, Denmark"," 1350 "
"456",12.574365701753,55.6826892253261,1173,6789553,"Kultorvet, 1175 København, Denmark"," 1175 "
"457",12.5727743330508,55.6811734659175,1173,13637764,"Fiolstræde 24, 1171 København K, Denmark"," 1171 "
"458",12.5737730950589,55.6824405750616,1173,9662074,"Kultorvet 13, 1175 København K, Denmark"," 1175 "
"459",12.5751617200969,55.6823199441595,1173,3391817,"Pustervig 8, 1126 København K, Denmark"," 1126 "
"460",12.5741860789921,55.6818982960363,1172,432409,"Købmagergade 65B, 1150 København K, Denmark"," 1150 "
"461",12.571426336723,55.6783532808493,1172,6881244,"Gammeltorv 18, 1457 København K, Denmark"," 1457 "
"462",12.575283963877,55.6800665763156,1172,2618043,"Kejsergade 1, 1155 København K, Denmark"," 1155 "
"463",12.5723866267748,55.6799596605097,1172,2491311,"Hovedbygningen, 1165 København K, Denmark"," 1165 "
"464",12.5749291932713,55.6814824651834,1172,2886912,"Købmagergade 55, 1150 København K, Denmark"," 1150 "
"465",12.5720120366937,55.6819314571529,1171,12908190,"Fiolstræde 23A, 1171 København K, Denmark"," 1171 "
"466",12.5725829302879,55.683112729939,1171,11755663,"Frederiksborggade 9, 1360 København K, Denmark"," 1360 "
"467",12.5729123875387,55.6814972352185,1171,9455327,"Fiolstræde 28A, 1171 København K, Denmark"," 1171 "
"468",12.5711853460125,55.6817027067497,1171,3833152,"Nørregade 41-43, 1358 København K, Denmark"," 1358 "
"469",12.5739883062311,55.6805409079757,1171,3041949,"Store Kannikestræde 14G, 1169 København K, Denmark"," 1169 "
"470",12.5734400435299,55.6817640051399,1171,13593422,"Peder Hvitfeldts Stræde 11, 1173 København K, Denmark"," 1173 "
"471",12.5732644439616,55.6803544339059,1171,8218669,"Fiolstræde 10, 1171 København K, Denmark"," 1171 "
"472",12.5733193269304,55.6801305424298,1171,12183138,"Fiolstræde 8, 1171 København K, Denmark"," 1171 "
"473",12.573251032384,55.6813345576771,1171,13358421,"Krystalgade 12, 1172 København K, Denmark"," 1172 "
"474",12.573223909696,55.6819572551882,1171,6112867,"Peder Hvitfeldts Stræde 15, 1173 København K, Denmark"," 1173 "
"475",12.5710585021213,55.6822134764186,1171,9649441,"Nørre Voldgade 68, 1358 København K, Denmark"," 1358 "
"476",12.5728574645745,55.6825332773189,1171,7697709,"Rosengården 12, 1174 København K, Denmark"," 1174 "
"477",12.5712944656503,55.6823090422618,1171,7028213,"Nørre Voldgade 68, 1358 København K, Denmark"," 1358 "
"478",12.5727236210749,55.6828560259044,1171,2939998,"Frederiksborggade 5B, 1360 København K, Denmark"," 1360 "
"479",12.5735742504321,55.6796680431033,1171,5125493,"Fiolstræde 4, 1171 København K, Denmark"," 1171 "
"480",12.57258085238,55.6810166054238,1171,12994230,"Fiolstræde 5, 1171 København K, Denmark"," 1171 "
"481",12.5717031855572,55.6817221776345,1171,2452011,"Nørregade 28C, 1165 København K, Denmark"," 1165 "
"482",12.5719032400829,55.679788895794,1171,13260985,"Nørregade 15, 1165 København K, Denmark"," 1165 "
"483",12.5733166331348,55.6808062258466,1171,8947133,"Krystalgade 19, 1172 København K, Denmark"," 1172 "
"484",12.574279819581,55.6815512104991,1169,10827832,"Købmagergade 57A, 1150 København K, Denmark"," 1150 "
"485",12.5728651907623,55.6799789676981,1166,5898553,"Hovedbygningen, 1165 København K, Denmark"," 1165 "
"486",12.5719301804034,55.681621467758,1165,8843553,"Fiolstræde 17B, 1171 København K, Denmark"," 1171 "
"487",12.5708263325581,55.6805759772047,1165,13588979,"Sankt Petri Passage 5, 1165 København K, Denmark"," 1165 "
"488",12.5722486446189,55.6813325319192,1165,12638973,"Fiolstræde 9, 1171 København K, Denmark"," 1171 "
"489",12.572593866027,55.6803274879144,1165,2872056,"Museumshuset, 1172 København K, Denmark"," 1172 "
"490",12.5723097908633,55.6818922219973,1165,4747944,"Fiolstræde 34, 1171 København K, Denmark"," 1171 "
"491",12.5708356695692,55.68195119181,1165,1785730,"Nørregade 47, 1165 København K, Denmark"," 1165 "
"492",12.5719431453031,55.6807961639546,1165,6815290,"Krystalgade 20A, 1172 København K, Denmark"," 1172 "
"493",12.57108840695,55.6807597942211,1165,12153084,"Nørregade 27, 1165 København K, Denmark"," 1165 "
"494",12.5699740446891,55.6826122340454,1165,6352176,"Nørre Voldgade 7, 1358 København K, Denmark"," 1358 "
"495",12.5701368858522,55.683296873528,1165,558455,"Linnésgade 14A, 1361 København K, Denmark"," 1361 "
"496",12.5717131797807,55.6825121385508,1165,13351693,"Fiolstræde 33, 1171 København K, Denmark"," 1171 "
"497",12.5721184412619,55.6825108762574,1165,9918560,"Rosengården 16, 1174 København K, Denmark"," 1174 "
"498",12.5718806599741,55.6812353934599,1165,9766329,"Nørregade 24C, 1165 København K, Denmark"," 1165 "
"499",12.5720325897052,55.6810016000515,1165,9746385,"Fiolstræde 5A, 1171 København K, Denmark"," 1171 "
"500",12.5723920830939,55.6817049740472,1165,1557373,"Fiolstræde 34, 1171 København K, Denmark"," 1171 "
"501",12.5704221446039,55.6827860440947,1165,8667742,"Nørre Voldgade 9, 1358 København K, Denmark"," 1358 "
"502",12.5717740344552,55.6821267427361,1165,12927152,"Fiolstræde 27A, 1171 København K, Denmark"," 1171 "
"503",12.5722741646376,55.6820417411948,1165,10567023,"Fiolstræde 38, 1171 København K, Denmark"," 1171 "
"504",12.5721627936206,55.6804455525915,1165,13220359,"Museumshuset, 1172 København K, Denmark"," 1172 "
"505",12.5718542817123,55.6818062234823,1165,8532752,"Fiolstræde 21, 1171 København K, Denmark"," 1171 "
"506",12.5721120214669,55.6806807214418,1165,9744188,"Krystalgade 20A, 1172 København K, Denmark"," 1172 "
"507",12.5709222050445,55.6828308500835,1165,8494250,"Nørre Voldgade 13, 1358 København K, Denmark"," 1358 "
"508",12.570560578531,55.6813455455539,1165,9340485,"Nørregade 37B, 1165 København K, Denmark"," 1165 "
"509",12.5720947015264,55.6826944911516,1165,9766388,"Fiolstræde 44, 1171 København K, Denmark"," 1171 "
"510",12.5728452174915,55.6821216732617,1165,3310216,"Rosengården 7, 1174 København K, Denmark"," 1174 "
"511",12.5709568165019,55.6813638589324,1165,9766235,"Nørregade 37B, 1165 København K, Denmark"," 1165 "
"512",12.5718693122518,55.6826512895569,1165,5312467,"Fiolstræde 44, 1171 København K, Denmark"," 1171 "
"513",12.5753545884135,55.6798852539707,1161,1121190,"Gråbrødretorv 14, 1154 København K, Denmark"," 1154 "
"514",12.5740852708041,55.6778580633272,1161,3930253,"Brolæggerstræde 14B, 1211 København K, Denmark"," 1211 "
"515",12.5742351671933,55.6793357842655,1161,6945870,"Skindergade 31, 1159 København K, Denmark"," 1159 "
"516",12.5761182755799,55.67935050015,1161,12524796,"Valkendorfsgade 30, 1151 København K, Denmark"," 1151 "
"517",12.5740479065616,55.6782292630971,1161,6281013,"Knabrostræde 2, 1210 København K, Denmark"," 1210 "
"518",12.574178896674,55.6797936699701,1161,938615,"Skindergade 28C, 1159 København K, Denmark"," 1159 "
"519",12.5760204185451,55.6781980695346,1161,6615778,"Vimmelskaftet 41E, 1161 København K, Denmark"," 1161 "
"520",12.5743657920286,55.679473852807,1161,13621973,"Skindergade 28-32, 1159 København K, Denmark"," 1159 "
"521",12.5740125147869,55.6784912097385,1161,924497,"Vimmelskaftet 49, 1161 København K, Denmark"," 1161 "
"522",12.5756793172899,55.6785544278544,1161,7805961,"Vimmelskaftet 39, 1161 København K, Denmark"," 1161 "
"523",12.5756903797528,55.6792422277762,1160,8578484,"Gråbrødretorv 21, 1154 København K, Denmark"," 1154 "
"524",12.5769775017744,55.6767001603627,1160,3341868,"Nybrogade 8, 1203 København K, Denmark"," 1203 "
"525",12.5754673300473,55.6786791248746,1159,7040155,"Vimmelskaftet 30, 1161 København K, Denmark"," 1161 "
"526",12.5754587943078,55.680138145492,1159,4197421,"Kejsergade 2, 1155 København K, Denmark"," 1155 "
"527",12.5723696116354,55.6781210501418,1159,12385628,"Gammeltorv 4, 1457 København K, Denmark"," 1457 "
"528",12.5759667179437,55.6795156602691,1159,2816989,"Gråbrødretorv 13, 1154 København K, Denmark"," 1154 "
"529",12.5735205817246,55.6765380060206,1159,9008858,"Kompagnistræde 32A, 1208 København K, Denmark"," 1208 "
"530",12.5742276474315,55.680734115729,1159,11007048,"Krystalgade 9A, 1172 København K, Denmark"," 1172 "
"531",12.5729288799141,55.6794253082839,1159,11549819,"Vor Frue Kirke, 1165 København K, Denmark"," 1165 "
"532",12.5734119286295,55.6785356995137,1159,13068708,"Skoubogade 3, 1158 København K, Denmark"," 1158 "
"533",12.576996880541,55.6818822368672,1159,13062703,"Pilestræde 67, 1119 København K, Denmark"," 1119 "
"534",12.5741577969266,55.6813429853918,1159,10835267,"Peder Hvitfeldts Stræde 4, 1173 København K, Denmark"," 1173 "
"535",12.5752439078454,55.6803273281393,1159,12483203,"Skindergade 14, 1159 København K, Denmark"," 1159 "
"536",12.5761217037798,55.681152421924,1159,13062061,"Købmagergade 52, 1150 København K, Denmark"," 1150 "
"537",12.5760457716261,55.6796165088763,1159,6044950,"Gråbrødretorv 11, 1154 København K, Denmark"," 1154 "
"538",12.5740135901111,55.6799436306835,1159,10786900,"Store Kannikestræde 19, 1169 København K, Denmark"," 1169 "
"539",12.5734013155979,55.6805286474252,1159,6656208,"Fiolstræde 12B, 1171 København K, Denmark"," 1171 "
"540",12.5742039686817,55.6798549517697,1159,8586723,"Skindergade 28C, 1159 København K, Denmark"," 1159 "
"541",12.5759204082081,55.6811848017646,1159,5275789,"Købmagergade 49, 1150 København K, Denmark"," 1150 "
"542",12.5728190777195,55.6779069034152,1158,10581642,"Nytorv 1F, 1450 København K, Denmark"," 1450 "
"543",12.5738303927741,55.6792512805423,1158,5800800,"Fiolstræde 2, 1171 København K, Denmark"," 1171 "
"544",12.5762052046548,55.6796686160634,1157,13342275,"Gråbrødretorv 9, 1154 København K, Denmark"," 1154 "
"545",12.575341145469,55.6805416602491,1157,3241203,"Skindergade 12, 1159 København K, Denmark"," 1159 "
"546",12.5752922698882,55.6802659312474,1157,7685002,"Skindergade 14, 1159 København K, Denmark"," 1159 "
"547",12.575208984609,55.6789407478572,1157,12692726,"Klosterstræde 11, 1157 København K, Denmark"," 1157 "
"548",12.5747735124021,55.680577280052,1157,222915,"Store Kannikestræde 8-10, 1169 København K, Denmark"," 1169 "
"549",12.5738060509475,55.6792272107628,1157,13304200,"Fiolstræde 2, 1171 København K, Denmark"," 1171 "
"550",12.5767381690222,55.6794261543266,1156,10077170,"Valkendorfsgade 23, 1160 København K, Denmark"," 1160 "
"551",12.5761298630197,55.6786323414817,1156,5776881,"Amagertorv 33, 1160 København K, Denmark"," 1160 "
"552",12.5744828536008,55.6784138979507,1156,7892249,"Badstuestræde 2, 1209 København K, Denmark"," 1209 "
"553",12.5762516407501,55.6799167599957,1154,11890447,"Gråbrødretorv 6, 1154 København K, Denmark"," 1154 "
"554",12.5787061840388,55.684551387322,1154,1276048,"Kavalergangen, 1350 København K, Denmark"," 1350 "
"555",12.5748501544384,55.6800850044036,1154,11890126,"Lille Kannikestræde 4, 1170 København K, Denmark"," 1170 "
"556",12.5741767512062,55.6800915936472,1154,9614456,"Store Kannikestræde 16-18, 1169 København K, Denmark"," 1169 "
"557",12.5766665680268,55.6812065612165,1154,13511886,"Købmagergade 50, 1150 København K, Denmark"," 1150 "
"558",12.5763310959591,55.6784989321071,1154,8589360,"Amagertorv 33, 1160 København K, Denmark"," 1160 "
"559",12.5759976650794,55.678901354204,1154,3310339,"Klosterstræde 2, 1157 København K, Denmark"," 1157 "
"560",12.5761898519657,55.6806219550726,1153,8708967,"Skindergade 5, 1159 København K, Denmark"," 1159 "
"561",12.576156899901,55.6811543061243,1153,5004282,"Købmagergade 52, 1150 København K, Denmark"," 1150 "
"562",12.5757184006966,55.6813262040624,1153,6995459,"Rundetårn, 1150 København K, Denmark"," 1150 "
"563",12.5751009381638,55.6812170138047,1153,10494628,"Krystalgade 1, 1172 København K, Denmark"," 1172 "
"564",12.581652156945,55.6795230463526,1153,5019399,"Østergade 42B, 1100 København K, Denmark"," 1100 "
"565",12.5756401849197,55.6809388319229,1153,5025878,"Store Kannikestræde 5, 1169 København K, Denmark"," 1169 "
"566",12.5776397901558,55.6796085234013,1152,13655870,"Valkendorfsgade 13A, 1151 København K, Denmark"," 1151 "
"567",12.5774212792234,55.6807088110421,1152,5279665,"Løvstræde 2, 1152 København K, Denmark"," 1152 "
"568",12.5773273378755,55.6810979238812,1152,12878282,"Købmagergade 44, 1150 København K, Denmark"," 1150 "
"569",12.5769943763711,55.6804504116802,1151,13500257,"Løvstræde 6, 1152 København K, Denmark"," 1152 "
"570",12.574839027696,55.679426463271,1151,8218180,"Klosterstræde 23, 1157 København K, Denmark"," 1157 "
"571",12.5767055754484,55.679276494363,1151,5495660,"Valkendorfsgade 23, 1151 København K, Denmark"," 1151 "
"572",12.5766766022795,55.6782023755176,1151,1921343,"Hyskenstræde 3, 1207 København K, Denmark"," 1207 "
"573",12.5780845224467,55.6793414536248,1151,894420,"Amagertorv 10, 1160 København K, Denmark"," 1160 "
"574",12.5752950092821,55.6814581011898,1150,4210260,"Landemærket 3, 1119 København K, Denmark"," 1119 "
"575",12.5788565838966,55.6802707511438,1150,5950433,"Købmagergade 30, 1150 København K, Denmark"," 1150 "
"576",12.5781058955721,55.6814113539101,1150,12084094,"Pilestræde 61, 1112 København K, Denmark"," 1112 "
"577",12.5757744361847,55.6807820459842,1150,6471396,"Skindergade 8, 1159 København K, Denmark"," 1159 "
"578",12.5761349345313,55.6810429068517,1150,13232397,"Skindergade 2C, 1159 København K, Denmark"," 1159 "
"579",12.5772852327715,55.680188902241,1150,13231392,"Pilestræde 26, 1112 København K, Denmark"," 1112 "
"580",12.579987477091,55.6806825831587,1150,12532314,"Pilestræde 35C, 1112 København K, Denmark"," 1112 "
"581",12.5772018494436,55.6813018319917,1150,10606619,"Købmagergade 48, 1150 København K, Denmark"," 1150 "
"582",12.5777672238012,55.680080752436,1150,12083235,"Valkendorfsgade 4, 1151 København K, Denmark"," 1151 "
"583",12.5799657664529,55.6797088821825,1150,13616888,"Silkegade 8, 1113 København K, Denmark"," 1113 "
"584",12.577606399506,55.6792241838379,1150,12765703,"Niels Hemmingsens Gade 5, 1151 København K, Denmark"," 1151 "
"585",12.5779676316454,55.6795897320337,1150,13647878,"Amagertorv 10C, 1160 København K, Denmark"," 1160 "
"586",12.5752473128926,55.6815319811967,1150,3520262,"Købmagergade 54, 1150 København K, Denmark"," 1150 "
"587",12.5777704573639,55.6809056467443,1150,13611354,"Købmagergade 42, 1150 København K, Denmark"," 1150 "
"588",12.5781955914427,55.679001116604,1150,9317788,"Amagertorv 14, 1160 København K, Denmark"," 1160 "
"589",12.5751718989798,55.6816393161457,1150,10494140,"Købmagergade 56, 1150 København K, Denmark"," 1150 "
"590",12.5746633575524,55.681456063422,1150,10222001,"Købmagergade 55, 1150 København K, Denmark"," 1150 "
"591",12.5778873693116,55.6818638713075,1150,10263565,"Pilestræde 59, 1112 København K, Denmark"," 1112 "
"592",12.5767133689149,55.6800540846887,1150,10263872,"Løvstræde 7, 1152 København K, Denmark"," 1152 "
"593",12.5793720703959,55.6794870761645,1150,10327718,"Købmagergade 7, 1150 København K, Denmark"," 1150 "
"594",12.5781999503862,55.6806168343874,1150,6623235,"Købmagergade 38, 1150 København K, Denmark"," 1150 "
"595",12.5775005075779,55.6803277005571,1150,11175933,"Pilestræde 26, 1112 København K, Denmark"," 1112 "
"596",12.5744311306177,55.6842255783222,1131,1207374,"Gothersgade 115, 1123 København K, Denmark"," 1123 "
"597",12.5727004994998,55.6818772835819,1130,13638434,"Fiolstræde 34C, 1171 København K, Denmark"," 1171 "
"598",12.5745836596588,55.6846905614982,1130,5083399,"Øster Voldgade 2A, 1350 København K, Denmark"," 1350 "
"599",12.5745759632703,55.6837484289213,1129,5504726,"Åbenrå 35, 1124 København K, Denmark"," 1124 "
"600",12.5737317453869,55.6842134580887,1129,13078806,"Nørre Voldgade 106, 1358 København K, Denmark"," 1358 "
"601",12.5739772253089,55.6817625139019,1129,13024704,"Peder Hvitfeldts Stræde 12, 1173 København K, Denmark"," 1173 "
"602",12.5735173475684,55.6820975286388,1129,2604394,"Peder Hvitfeldts Stræde 17, 1173 København K, Denmark"," 1173 "
"603",12.5743895949043,55.6821859250128,1129,8264442,"Kultorvet 1, 1175 København K, Denmark"," 1175 "
"604",12.5752374926041,55.6821888530518,1129,6753941,"Pustervig 8, 1126 København K, Denmark"," 1126 "
"605",12.5741097780539,55.6825803773195,1128,9953485,"Kultorvet 2-14, 1175 København K, Denmark"," 1175 "
"606",12.5749706586539,55.6837390346648,1127,9880405,"Åbenrå 36, 1124 København K, Denmark"," 1124 "
"607",12.5755030916882,55.6825428388138,1127,7631845,"Hauser Pl. 5, 1127 København K, Denmark"," 1127 "
"608",12.5761447833663,55.6839264889521,1127,9205450,"Gothersgade 107, 1123 København K, Denmark"," 1123 "
"609",12.5743933746062,55.6819851207846,1127,7627477,"Købmagergade 65E, 1150 København K, Denmark"," 1150 "
"610",12.5749940771301,55.6840105561341,1127,6935551,"Rosenborggade 19, 1130 København K, Denmark"," 1130 "
"611",12.5746245007453,55.6837881723272,1127,2541250,"Åbenrå 36, 1124 København K, Denmark"," 1124 "
"612",12.5754732714038,55.6820705887094,1127,5392253,"Landemærket 9A, 1119 København K, Denmark"," 1119 "
"613",12.5760261053897,55.6812417323512,1125,7303501,"Købmagergade 50, 1119 København K, Denmark"," 1119 "
"614",12.5758075371102,55.6812143270701,1125,12106194,"Store Kannikestræde 2, 1169 København K, Denmark"," 1169 "
"615",12.5766878640001,55.6834777591615,1124,13323120,"Gothersgade 101C, 1123 København K, Denmark"," 1123 "
"616",12.5781804374626,55.6827967071667,1124,4877128,"Vognmagergade 10, 1120 København K, Denmark"," 1120 "
"617",12.5765866575726,55.6837284084225,1124,4877217,"Gothersgade 103, 1123 København K, Denmark"," 1123 "
"618",12.5756282511405,55.6842132827339,1124,13493574,"Gothersgade 109A, 1123 København K, Denmark"," 1123 "
"619",12.575240295304,55.6838301311868,1124,6929640,"Gothersgade 111, 1123 København K, Denmark"," 1123 "
"620",12.5769935112668,55.6826380807298,1124,2832488,"Landemærket 29, 1119 København K, Denmark"," 1119 "
"621",12.5760229198578,55.682829708339,1124,1635069,"Hauser Pl. 16, 1127 København K, Denmark"," 1127 "
"622",12.5753423370119,55.6824672700565,1124,12753013,"Pustervig 8, 1126 København K, Denmark"," 1126 "
"623",12.5787451902991,55.6849639006746,1124,1902078,"Kavalergangen, 1350 København K, Denmark"," 1350 "
"624",12.5670361211292,55.6857634600781,1123,2849787,"Frederiksborggade 48C, 1360 København K, Denmark"," 1360 "
"625",12.5667275531945,55.6849486510032,1123,1098484,"Nansensgade 69, 1366 København K, Denmark"," 1366 "
"626",12.5825551566701,55.6814965178628,1123,7982387,"Ny Østergade 20, 1101 København K, Denmark"," 1101 "
"627",12.5828739933632,55.6822348409989,1123,1532022,"Gothersgade 34, 1123 København K, Denmark"," 1123 "
"628",12.5678547488512,55.6849963953264,1123,13119375,"Frederiksborggade 29, 1360 København K, Denmark"," 1360 "
"629",12.5782450804991,55.6822079666117,1123,7084836,"Vognmagergade 8, 1120 København K, Denmark"," 1120 "
"630",12.5684987216516,55.6864398286936,1123,7044334,"Nansensgade 98, 1366 København K, Denmark"," 1366 "
"631",12.5835008333512,55.6826736446524,1123,3559702,"Borgergade 5, 1300 København K, Denmark"," 1300 "
"632",12.5663984327657,55.6876152015567,1123,8711650,"Øster Søgade 10, 1357 København K, Denmark"," 1357 "
"633",12.5800813217479,55.6847340149147,1123,3074841,"Damegangen, 1350 København K, Denmark"," 1350 "
"634",12.5674934806257,55.6857217703637,1123,37159,"Nansensgade 75, 1366 København K, Denmark"," 1366 "
"635",12.5687135965283,55.6855373623208,1123,13035010,"Nørre Farimagsgade 71, 1364 København K, Denmark"," 1364 "
"636",12.5678286391088,55.6869242982001,1123,5361544,"Center for Sundhed og Samfund, 1353 København K, Denmark"," 1353 "
"637",12.5663905681472,55.6859284451886,1123,6759129,"Frederiksborggade 52, 1360 København K, Denmark"," 1360 "
"638",12.5832916359469,55.6827058384147,1123,8146493,"Adelgade 10, 1304 København K, Denmark"," 1304 "
"639",12.5850555410963,55.682595824612,1123,1100420,"Borgergade 6, 1300 København K, Denmark"," 1300 "
"640",12.5650983893642,55.6872436932693,1123,6998277,"Øster Søgade 8, 1357 København K, Denmark"," 1357 "
"641",12.5704305833379,55.6863559852201,1123,9061463,"Øster Farimagsgade 2A, 1353 København K, Denmark"," 1353 "
"642",12.5758311116744,55.6844001465846,1123,10240613,"Gothersgade 109A, 1123 København K, Denmark"," 1123 "
"643",12.567114063366,55.6858940379176,1123,12107198,"Frederiksborggade 48B, 1360 København K, Denmark"," 1360 "
"644",12.5831845256833,55.682982090157,1123,8502657,"Adelgade 10-16, 1304 København K, Denmark"," 1304 "
"645",12.5826784123361,55.6831259094948,1123,2668851,"Adelgade 5, 1304 København K, Denmark"," 1304 "
"646",12.5754335035209,55.6844046442883,1123,3453146,"Gothersgade 111, 1123 København K, Denmark"," 1123 "
"647",12.5670682912911,55.6871059200774,1123,7744999,"Bartholinsgade 15-17, 1357 København K, Denmark"," 1357 "
"648",12.5828941820839,55.6826768271257,1123,3288772,"Adelgade 10, 1304 København K, Denmark"," 1304 "
"649",12.5841389474653,55.6814723339992,1123,2501132,"Gothersgade 11A, 1123 København K, Denmark"," 1123 "
"650",12.5769285955382,55.6830272357272,1123,2634135,"Åbenrå 14, 1124 København K, Denmark"," 1124 "
"651",12.5672499234134,55.6856596147949,1123,6563177,"Nansensgade 73, 1366 København K, Denmark"," 1366 "
"652",12.5670327075727,55.6856570817142,1123,5337291,"Frederiksborggade 46, 1360 København K, Denmark"," 1360 "
"653",12.5776420136313,55.6845588150892,1123,3153155,"Kavalergangen, 1350 København K, Denmark"," 1350 "
"654",12.5666006529768,55.6856164463888,1123,11933188,"Frederiksborggade 48, 1360 København K, Denmark"," 1360 "
"655",12.5688265382572,55.6866559123204,1123,5742767,"Nansensgade, 1366 København K, Denmark"," 1366 "
"656",12.5817265616462,55.6830917245846,1123,5509071,"Kronprinsessegade 6B, 1306 København K, Denmark"," 1306 "
"657",12.5680166453333,55.6857891841356,1123,2855598,"Gothersgade 159, 1123 København K, Denmark"," 1123 "
"658",12.5810873449739,55.6837258622589,1123,12978689,"Kronprinsessegade 7, 1306 København K, Denmark"," 1306 "
"659",12.5702909444294,55.6856833195596,1123,6429991,"Gothersgade 140, 1123 København K, Denmark"," 1123 "
"660",12.5999745707333,55.6592489571443,1123,4497255,"Brydes Allé 2, 2300 København S, Denmark"," 2300 "
"661",12.5762072728719,55.6831894111684,1119,13097828,"Åbenrå 5, 1124 København K, Denmark"," 1124 "
"662",12.5799219416274,55.6829626130573,1119,4747071,"Gothersgade 64, 1123 København K, Denmark"," 1123 "
"663",12.5808920339958,55.6802304556912,1118,1355818,"Antonigade 3, 1112 København K, Denmark"," 1112 "
"664",12.5784556047399,55.6804737132698,1117,2905579,"Kronprinsensgade 1, 1114 København K, Denmark"," 1114 "
"665",12.5789798563444,55.6804596094707,1117,7488769,"Kronprinsensgade 6C, 1114 København K, Denmark"," 1114 "
"666",12.5806438516193,55.6811061288585,1117,6637197,"Sværtegade 5, 1118 København K, Denmark"," 1118 "
"667",12.5794814401972,55.6825618531368,1117,7114582,"Sjæleboderne 8, 1120 København K, Denmark"," 1120 "
"668",12.5809560278796,55.6806760836498,1117,5342672,"Gammel Mønt 1, 1117 København K, Denmark"," 1117 "
"669",12.5780411388845,55.6806326854685,1116,4775581,"Købmagergade 40, 1150 København K, Denmark"," 1150 "
"670",12.5799618504214,55.6810637691378,1116,9891379,"Pilestræde 42, 1112 København K, Denmark"," 1112 "
"671",12.5798286358053,55.6804667732382,1116,621354,"Silkegade 19, 1150 København K, Denmark"," 1150 "
"672",12.5780745525394,55.680368173801,1116,5187598,"Møinichen Mansion, 1152 København K, Denmark"," 1152 "
"673",12.5786486071064,55.6810289404342,1116,2238482,"Klareboderne 12, 1115 København K, Denmark"," 1115 "
"674",12.5783210821425,55.6815469565945,1115,7278910,"Pilestræde 61, 1112 København K, Denmark"," 1112 "
"675",12.5792160339356,55.6813910309956,1114,13491596,"Pilestræde 52, 1112 København K, Denmark"," 1112 "
"676",12.5779116342831,55.681291930616,1114,9493960,"Klareboderne 3E, 1115 København K, Denmark"," 1115 "
"677",12.5781858639327,55.6800327727759,1114,13661239,"Valkendorfsgade 7, 1151 København K, Denmark"," 1151 "
"678",12.5801269021643,55.6795954580139,1114,4488709,"Østergade 52, 1100 København K, Denmark"," 1100 "
"679",12.5802358739763,55.6816041585685,1114,13491713,"Gammel Mønt 31, 1117 København K, Denmark"," 1117 "
"680",12.581379264936,55.6813845126064,1114,12111150,"Store Regnegade 1, 1110 København K, Denmark"," 1110 "
"681",12.5785956715828,55.6810666124638,1114,6656824,"Klareboderne 14, 1115 København K, Denmark"," 1115 "
"682",12.5805613451024,55.6797107339715,1113,4056797,"Pilestræde 13, 1112 København K, Denmark"," 1112 "
"683",12.5765012918415,55.6816561663502,1113,3327071,"Købmagergade 50E, 1150 København K, Denmark"," 1150 "
"684",12.5824445995738,55.6823668666164,1113,9733164,"Gothersgade 42, 1123 København K, Denmark"," 1123 "
"685",12.5784751648294,55.6821692175818,1112,10801674,"Vognmagergade 7, 1120 København K, Denmark"," 1120 "
"686",12.579948918554,55.681617871206,1112,12019826,"Gammel Mønt 35, 1117 København K, Denmark"," 1117 "
"687",12.5796829265249,55.6822200616011,1112,1312021,"Møntergade 19, 1116 København K, Denmark"," 1116 "
"688",12.5789435828189,55.6796084507633,1112,6509598,"Købmagergade 9, 1150 København K, Denmark"," 1150 "
"689",12.5808918141656,55.6820226224833,1112,6607660,"Christian Ix's Gade 3, 1111 København K, Denmark"," 1111 "
"690",12.5796916282725,55.6821966338494,1112,3517049,"Møntergade 19, 1116 København K, Denmark"," 1116 "
"691",12.5785785446563,55.6822182047226,1112,5539185,"Vognmagergade 7, 1120 København K, Denmark"," 1120 "
"692",12.5833261695206,55.6815816250145,1110,2060008,"Grønnegade 39, 1107 København K, Denmark"," 1107 "
"693",12.582164094798,55.6808413928332,1110,10301694,"Grønnegade 4, 1107 København K, Denmark"," 1107 "
"694",12.5799372167225,55.6794703762843,1110,9662253,"Østergade 52, 1100 København K, Denmark"," 1100 "
"695",12.5834207843071,55.6828851301096,1110,6875975,"Adelgade 10, 1304 København K, Denmark"," 1304 "
"696",12.5826161064673,55.6813610472863,1110,10959728,"Ny Østergade 13-15, 1101 København K, Denmark"," 1101 "
"697",12.5838899626744,55.6809388398278,1110,7682814,"Hovedvagtsgade 6, 1103 København K, Denmark"," 1103 "
"698",12.5782147084516,55.6780199353238,1110,3102935,"Læderstræde 9, 1201 København K, Denmark"," 1201 "
"699",12.5832887051128,55.6820587101324,1110,4774593,"Gothersgade 26, 1123 København K, Denmark"," 1123 "
"700",12.5830405904602,55.6825863642753,1107,13568750,"Adelgade 10, 1304 København K, Denmark"," 1304 "
"701",12.5835888345629,55.6823147587297,1107,8731085,"Borgergade 3, 1300 København K, Denmark"," 1300 "
"702",12.5835627484394,55.6821392736627,1107,13610912,"Borgergade 1, 1123 København K, Denmark"," 1123 "
"703",12.5825633228704,55.6818616160344,1107,9820650,"Store Regnegade 26, 1110 København K, Denmark"," 1110 "
"704",12.5857630840211,55.6796522871958,1107,12092501,"Kongens Nytorv 9, 1050 København K, Denmark"," 1050 "
"705",12.584213277981,55.6803960414834,1104,3009409,"Østergade 6, 1100 København K, Denmark"," 1100 "
"706",12.5829018535556,55.6806904594981,1104,5311361,"Ny Østergade 5, 1101 København K, Denmark"," 1101 "
"707",12.5852849425038,55.68108826714,1100,2689215,"Kongens Nytorv 28, 1050 København K, Denmark"," 1050 "
"708",12.5847540747025,55.6799772966423,1074,12667803,"Kongens Nytorv 21, 1050 København K, Denmark"," 1050 "
"709",12.5847266556452,55.6807296672008,1074,13078785,"Kongens Nytorv 34, 1050 København K, Denmark"," 1050 "
"710",12.583165036611,55.6771683972765,1071,7999276,"Holmens Kanal 22, 1066 København K, Denmark"," 1066 "
"711",12.5817411965134,55.6774057700581,1071,9755582,"Boldhusgade 6A, 1062 København K, Denmark"," 1062 "
"712",12.5817874336344,55.6782999557409,1071,13070713,"Nikolaj Plads 27, 1067 København K, Denmark"," 1067 "
"713",12.5825171584171,55.6787726832556,1071,13034399,"Nikolaj Plads 9, 1067 København K, Denmark"," 1067 "
"714",12.5832095899579,55.6771261928056,1071,10302371,"Holmens Kanal 22, 1066 København K, Denmark"," 1066 "
"715",12.5834782426765,55.6776231419163,1070,7861938,"Laksegade 19, 1063 København K, Denmark"," 1063 "
"716",12.5818352558594,55.678887260828,1070,6476338,"Nikolaj Plads 7, 1067 København K, Denmark"," 1067 "
"717",12.5843884443435,55.6784221784948,1069,5988653,"Asylgade 3, 1064 København K, Denmark"," 1064 "
"718",12.5823671243866,55.6800070366519,1069,453720,"Kristen Bernikows Gade 2, 1105 København K, Denmark"," 1105 "
"719",12.5839197653874,55.6773828872795,1069,12645433,"Holmens Kanal 20, 1060 København K, Denmark"," 1060 "
"720",12.5833325599138,55.6771832728449,1069,7730226,"Nikolajgade 26, 1068 København K, Denmark"," 1068 "
"721",12.5821937669244,55.6775859503145,1069,4763606,"Admiralgade 26, 1066 København K, Denmark"," 1066 "
"722",12.5838732356923,55.6770025236807,1069,11117076,"Holmens Kanal 21, 1060 København K, Denmark"," 1060 "
"723",12.5820892855696,55.6774176445761,1068,13483267,"Boldhusgade 2-4, 1066 København K, Denmark"," 1066 "
"724",12.5829048745126,55.6792337936429,1068,6463205,"Bremerholm 4, 1069 København K, Denmark"," 1069 "
"725",12.5832325761103,55.6793234398729,1068,3470238,"Lille Kongensgade 17, 1050 København K, Denmark"," 1050 "
"726",12.5811726710839,55.6779119653715,1068,13648187,"Fortunstræde 5, 1065 København K, Denmark"," 1065 "
"727",12.5803262321577,55.6772703346208,1067,8217955,"Christiansborg Slotsplads, 1213 København, Denmark"," 1213 "
"728",12.5797806517292,55.6788960106221,1065,13704080,"Østergade 61, 1100 København K, Denmark"," 1100 "
"729",12.5827011218049,55.6778634462331,1064,5468338,"Nikolajgade 22, 1068 København K, Denmark"," 1068 "
"730",12.5833144162352,55.676990018353,1063,6097124,"Holmens Kanal 22, 1066 København K, Denmark"," 1066 "
"731",12.5813780886738,55.6800796467727,1063,1864062,"Pilestræde 12A, 1112 København K, Denmark"," 1112 "
"732",12.5836319903153,55.678491166436,1063,8947054,"Bremerholm 29, 1069 København K, Denmark"," 1069 "
"733",12.5844206220483,55.6774568212754,1063,3280327,"Bremerholm 39, 1069 København K, Denmark"," 1069 "
"734",12.5830124998821,55.6786246016274,1063,8395100,"Bremerholm 18, 1069 København K, Denmark"," 1069 "
"735",12.5842824987182,55.6784548555458,1063,8262276,"Asylgade 3, 1064 København K, Denmark"," 1064 "
"736",12.5836018822971,55.6788328842082,1063,3739969,"Kongens Nytorv 13, 1050 København K, Denmark"," 1050 "
"737",12.5848861337393,55.6787140582986,1063,10331176,"Laksegade 6, 1063 København K, Denmark"," 1063 "
"738",12.5811392487842,55.6770382924526,1062,7727615,"Christiansborg Slotsplads, 1218 København, Denmark"," 1218 "
"739",12.5813685929678,55.678064351139,1061,13672133,"Fortunstræde 3, 1065 København, Denmark"," 1065 "
"740",12.590786926557,55.6780661865022,1058,1282781,"Cort Adelers Gade 5, 1053 København K, Denmark"," 1053 "
"741",12.5876618653691,55.6770536806635,1058,5907365,"Tordenskjoldsgade 28, 1055 København K, Denmark"," 1055 "
"742",12.592503559214,55.6795918466177,1058,6434687,"Nyhavn 63, 1051 København K, Denmark"," 1051 "
"743",12.5931282114157,55.6776214346213,1058,11708431,"Havnepromenade, 1058 København K, Denmark"," 1058 "
"744",12.5892919354582,55.6767492567261,1057,690223,"Havnegade 31, 1058 København K, Denmark"," 1058 "
"745",12.5891776921293,55.6789946147934,1057,13527960,"Herluf Trolles Gade 8, 1052 København K, Denmark"," 1052 "
"746",12.5885583848318,55.6771396374853,1057,10217028,"Tordenskjoldsgade 29, 1055 København K, Denmark"," 1055 "
"747",12.5880828710716,55.6785661996344,1057,965131,"Peder Skrams Gade 10A, 1054 København K, Denmark"," 1054 "
"748",12.5888875090509,55.6774074307584,1057,8734837,"Peder Skrams Gade 22, 1054 København K, Denmark"," 1054 "
"749",12.5903215820985,55.677875902698,1057,10260919,"Cort Adelers Gade 8, 1053 København K, Denmark"," 1053 "
"750",12.5879777478436,55.6789387267728,1056,6492000,"Peder Skrams Gade 2, 1054 København K, Denmark"," 1054 "
"751",12.588476405721,55.6764949530119,1055,12024944,"Havnegade 27, 1058 København K, Denmark"," 1058 "
"752",12.5872748898629,55.6779600176119,1055,7068274,"Holbergsgade 3, 1057 København K, Denmark"," 1057 "
"753",12.5896852817101,55.677475923133,1055,11538342,"Peder Skrams Gade 19, 1054 København K, Denmark"," 1054 "
"754",12.5871796190971,55.676627640059,1055,6409139,"Niels Juels Gade 13, 1059 København K, Denmark"," 1059 "
"755",12.5886009876594,55.6767757638586,1055,8657550,"Tordenskjoldsgade 33, 1055 København K, Denmark"," 1055 "
"756",12.5876477441785,55.6766791898792,1055,9091664,"Tordenskjoldsgade 34A, 1055 København K, Denmark"," 1055 "
"757",12.5877731411936,55.6780947874029,1055,503863,"Holbergsgade 5, 1057 København K, Denmark"," 1057 "
"758",12.5890252888666,55.6764649377304,1055,504051,"Havnepromenade, 1058 København K, Denmark"," 1058 "
"759",12.5892748652119,55.6757937516546,1055,12000368,"Havnepromenade, 1058 København K, Denmark"," 1058 "
"760",12.5871927351368,55.6793110685571,1054,6883677,"Heibergsgade 7, 1056 København K, Denmark"," 1056 "
"761",12.5901099475165,55.6782310000021,1054,6970126,"Holbergsgade 22, 1057 København K, Denmark"," 1057 "
"762",12.5906768103875,55.6764285096683,1054,1212293,"Havnepromenade, 1058 København K, Denmark"," 1058 "
"763",12.5881398306669,55.6794417505358,1054,2320048,"Heibergsgade 11, 1056 København K, Denmark"," 1056 "
"764",12.5888828536331,55.677310660192,1054,5585582,"Peder Skrams Gade 24, 1054 København K, Denmark"," 1054 "
"765",12.5895330962053,55.6772198662044,1054,351404,"Peder Skrams Gade 27, 1054 København K, Denmark"," 1054 "
"766",12.5890752886315,55.678035124702,1054,12638164,"Holbergsgade 14, 1057 København K, Denmark"," 1057 "
"767",12.5884603108592,55.6777813602495,1054,1686161,"Holbergsgade 10, 1057 København K, Denmark"," 1057 "
"768",12.5884717478372,55.6793597736806,1054,7190357,"Herluf Trolles Gade 2, 1056 København K, Denmark"," 1056 "
"769",12.5890374500773,55.6767714877359,1054,9220941,"Havnegade 31, 1058 København K, Denmark"," 1058 "
"770",12.5873762780185,55.6777158789875,1054,1210539,"Tordenskjoldsgade 20, 1055 København K, Denmark"," 1055 "
"771",12.5899826646792,55.6765208085538,1054,6369020,"Havnepromenade, 1058 København K, Denmark"," 1058 "
"772",12.5899283163189,55.6766778276711,1054,8398889,"Havnepromenade, 1058 København K, Denmark"," 1058 "
"773",12.5882504168104,55.6768166254242,1054,6789758,"Tordenskjoldsgade 32, 1055 København K, Denmark"," 1055 "
"774",12.5895899039019,55.6776379623316,1054,1182262,"Peder Skrams Gade 19, 1054 København K, Denmark"," 1054 "
"775",12.5881427630253,55.6749688916509,1053,780893,"Asiatisk Pl. 2, 1401 København, Denmark"," 1401 "
"776",12.589549260719,55.6770257069216,1053,9326161,"Peder Skrams Gade 28, 1054 København K, Denmark"," 1054 "
"777",12.591172087415,55.678075357546,1053,9719221,"Cort Adelers Gade 7, 1053 København K, Denmark"," 1053 "
"778",12.591036845369,55.6776738945301,1053,9876448,"Cort Adelers Gade 9, 1053 København K, Denmark"," 1053 "
"779",12.5907109502659,55.6796671252362,1053,11080709,"Nyhavn 22, 1051 København K, Denmark"," 1051 "
"780",12.591797013514,55.6782095393695,1053,13704202,"Havnegade 49, 1058 København K, Denmark"," 1058 "
"781",12.5899521124363,55.6771847152657,1053,9215666,"Havnegade 35, 1058 København K, Denmark"," 1058 "
"782",12.593420804277,55.6736731391462,1053,1382160,"Overgaden Oven Vandet 48E, 1415 København K, Denmark"," 1415 "
"783",12.5912073854663,55.6789016863291,1053,8094452,"Holbergsgade 28A, 1057 København K, Denmark"," 1057 "
"784",12.5926680507237,55.6788678879259,1052,5938221,"Nyhavn 44, 1051 København K, Denmark"," 1051 "
"785",12.588066859345,55.6796196125379,1052,3045767,"Heibergsgade 11, 1056 København K, Denmark"," 1056 "
"786",12.5917715214922,55.677519748237,1052,8648308,"Havnepromenade, 1058 København K, Denmark"," 1058 "
"787",12.5896825328885,55.6799238052102,1052,6909997,"Nyhavn 10, 1051 København K, Denmark"," 1051 "
"788",12.5918483541354,55.6780466691449,1052,6320660,"Havnegade 47A, 1058 København K, Denmark"," 1058 "
"789",12.591689471123,55.6781247738607,1052,7435027,"Havnegade 47A, 1058 København K, Denmark"," 1058 "
"790",12.5917529475317,55.6775456012759,1051,2507675,"Havnepromenade, 1058 København K, Denmark"," 1058 "
"791",12.5908691380405,55.6807447520933,1051,10061402,"Lille Strandstræde 18P, 1254 København K, Denmark"," 1254 "
"792",12.5906001596886,55.6803820095626,1051,10213200,"Nyhavn 43D, 1051 København K, Denmark"," 1051 "
"793",12.5908400461614,55.680365799402,1051,917339,"Nyhavn 31H, 1051 København K, Denmark"," 1051 "
"794",12.5936212856879,55.6791977801818,1051,13669539,"Nyhavn 71, 1051 København K, Denmark"," 1051 "
"795",12.5916112926796,55.6811658058947,1051,391707,"Sankt Annæ Pl. 18B, 1250 København K, Denmark"," 1250 "
"796",12.5898599014179,55.6811190770247,1051,6911580,"Lille Strandstræde 15, 1254 København K, Denmark"," 1254 "
"797",12.5911487360105,55.6799822837675,1051,8188151,"Nyhavn 45, 1051 København K, Denmark"," 1051 "
"798",12.5903391344284,55.6798307238641,1051,2603875,"Nyhavn 18, 1051 København K, Denmark"," 1051 "
"799",12.5909061450679,55.6802099051585,1051,10936485,"Nyhavn 43C, 1051 København K, Denmark"," 1051 "
"800",12.5914771089061,55.6811242040582,1051,7068646,"Sankt Annæ Pl. 18A, 1250 København K, Denmark"," 1250 "
"801",12.5900528115729,55.6800483222,1051,10408902,"Nyhavn 31A, 1051 København K, Denmark"," 1051 "
"802",12.5924713243349,55.6787444862248,1051,7721221,"Havnegade 53B, 1058 København K, Denmark"," 1058 "
"803",12.5924330626669,55.6790929723205,1051,6570382,"Nyhavn 44, 1051 København K, Denmark"," 1051 "
"804",12.5912265658469,55.6802003293763,1051,1425940,"Toldbodgade 7A, 1253 København K, Denmark"," 1253 "
"805",12.5897219771914,55.6813793735207,1051,1457407,"Store Strandstræde 21, 1255 København K, Denmark"," 1255 "
"806",12.5886683860589,55.6794325961448,1051,12203244,"Heibergsgade 14, 1056 København K, Denmark"," 1056 "
"807",12.5909931668053,55.6809064714379,1051,11142411,"Lille Strandstræde 18P, 1254 København K, Denmark"," 1254 "
"808",12.5944086392046,55.6789731688672,1051,12754022,"Nyhavn 71, 1051 København K, Denmark"," 1051 "
"809",12.5924712220508,55.6790327219224,1051,12982143,"Nyhavn 44, 1051 København K, Denmark"," 1051 "
"810",12.5917379570195,55.6800369673426,1051,3413640,"Toldbodgade 2, 1253 København K, Denmark"," 1253 "
"811",12.5923234197411,55.6807462542874,1051,2332122,"Toldbodgade 16, 1253 København K, Denmark"," 1253 "
"812",12.5880366278503,55.6781433666153,1050,7081569,"Holbergsgade 7, 1057 København K, Denmark"," 1057 "
"813",12.5920998884643,55.6798319961007,1050,12880272,"Nyhavn 53, 1051 København K, Denmark"," 1051 "
"814",12.5729563170554,55.6837630617029,1000,5318683,"Nørre Voldgade 92, 1358 København K, Denmark"," 1358 "
"815",12.5404138390755,55.6646926130254,124,12787629,"Slesvigsgade 12-14, 1762 København V, Denmark"," 1762 "
"816",12.5526938921069,55.6744236532755,NA,13161641,"Gammel Kongevej 72D, 1850 Frederiksberg C, Denmark"," 1850 "
"817",12.5491273778377,55.6794315357192,NA,9030457,"Lykkesholms Alle 35A, 1902 Frederiksberg C, Denmark"," 1902 "
"818",12.5424290010103,55.6729862099114,NA,1533478,"Paludan Müllers Vej 5, 1815 Frederiksberg C, Denmark"," 1815 "
"819",12.5562494696089,55.6797059388172,NA,1008940,"Suomisvej 5, 1927 Frederiksberg C, Denmark"," 1927 "
"820",12.5396774331588,55.6868986048655,NA,13444293,"Kong Georgs Vej 1, 2000 Frederiksberg, Denmark"," 2000 "
"821",12.5467173774225,55.6833381973664,NA,13596949,"Rosenørns Alle 63, 1970 Frederiksberg C, Denmark"," 1970 "
"822",12.5452868071743,55.6771429269994,NA,3510011,"Uraniavej 16A, 1878 Frederiksberg C, Denmark"," 1878 "
"823",12.5363749293691,55.6865774871629,NA,12961408,"Holger Danskes Vej 27B, 2000 Frederiksberg, Denmark"," 2000 "
"824",12.5318175005866,55.6850328973102,NA,4262437,"Aksel Møllers Have 24, 2000 Frederiksberg, Denmark"," 2000 "
"825",12.5142260522732,55.6765651863516,NA,11337578,"Kronprinsensvej 22, 2000 Frederiksberg, Denmark"," 2000 "
"826",12.555127065212,55.6756824252581,NA,1540036,"Vodroffsvej 8, 1900 Frederiksberg C, Denmark"," 1900 "
"827",12.543912534916,55.6749884375478,NA,359731,"Mynstersvej 10, 1827 Frederiksberg C, Denmark"," 1827 "
"828",12.54813528305,55.6785874540502,NA,1244448,"Niels Ebbesens Vej 29, 1911 Frederiksberg C, Denmark"," 1911 "
"829",12.5408013629899,55.6855383108087,NA,3530429,"Falkonergårdsvej 7, 1959 Frederiksberg C, Denmark"," 1959 "
"830",12.5448986488241,55.6800953057472,NA,456832,"Bomhoffs Have 14, 1874 Frederiksberg C, Denmark"," 1874 "
"831",12.533581394166,55.6872965545074,NA,13507068,"Holger Danskes Vej 57, 2000 Frederiksberg, Denmark"," 2000 "
"832",12.5291595518535,55.692275966558,NA,13432364,"Fuglebo 7, 2000 Frederiksberg, Denmark"," 2000 "
"833",12.5076626028577,55.6783970476392,NA,13058559,"Peter Bangs Vej 61, 2000 Frederiksberg, Denmark"," 2000 "
"834",12.5382896362955,55.6826645963659,NA,11957416,"Hostrups Have 2, 1954 Frederiksberg C, Denmark"," 1954 "
"835",12.5478888778662,55.6826965574314,NA,1471084,"Fuglevangsvej 13, 1962 Frederiksberg C, Denmark"," 1962 "
"836",12.5519752424605,55.6742513278317,NA,260657,"Gammel Kongevej 74C, 1850 Frederiksberg C, Denmark"," 1850 "
"837",12.5324349662005,55.6850982282032,NA,13234287,"Aksel Møllers Have 22, 2000 Frederiksberg, Denmark"," 2000 "
"838",12.5110712632812,55.6832022724753,NA,9498318,"Wilkensvej 46, 2000 Frederiksberg, Denmark"," 2000 "
"839",12.5496937946738,55.6825010710995,NA,9858713,"H. C. Ørsteds Vej 49B, 1879 Frederiksberg C, Denmark"," 1879 "
"840",12.5194509173585,55.6724032347449,NA,659979,"Roskildevej 32, 2000 Frederiksberg, Denmark"," 2000 "
"841",12.5223426577015,55.6682427031762,NA,9192447,"Bag Søndermarken 20, 2000 Frederiksberg, Denmark"," 2000 "
"842",12.5325048160589,55.6711768749603,NA,13034586,"Vesterbrogade 202B, 1800 Frederiksberg C, Denmark"," 1800 "
"843",12.5490340145971,55.6828172544737,NA,13493898,"Rosenørns Alle 50, 1970 Frederiksberg C, Denmark"," 1970 "
"844",12.5536944565219,55.6842171270818,NA,1238636,"Worsaaesvej 5, 1972 Frederiksberg C, Denmark"," 1972 "
"845",12.5345551538087,55.678767878088,NA,13587624,"Sagasvej 16, 1861 Frederiksberg C, Denmark"," 1861 "
"846",12.5378602482895,55.6850840202871,NA,1543648,"Falkoner Alle 55, 2000 Frederiksberg, Denmark"," 2000 "
"847",12.538108817322,55.6852812758516,NA,13391405,"Falkoner Alle 55, 2000 Frederiksberg, Denmark"," 2000 "
"848",12.5333284048566,55.6899044394295,NA,13454258,"Dronning Olgas Vej 40, 2000 Frederiksberg, Denmark"," 2000 "
"849",12.5481849332287,55.6808257229322,NA,9552520,"Thorvaldsensvej 4, 1871 Frederiksberg C, Denmark"," 1871 "
"850",12.5468206189358,55.6810342375572,NA,13320493,"J. M. Thieles Vej 2, 1961 Frederiksberg C, Denmark"," 1961 "
"851",12.5346304598965,55.6763260712247,NA,8078381,"Hollændervej 22-24, 1855 Frederiksberg C, Denmark"," 1855 "
"852",12.5409837739094,55.687557277551,NA,13484530,"Falkoner Alle 122, 2200 København N, Denmark"," 2200 "
"853",12.5399680572556,55.6760309068946,NA,3719314,"Nyvej 16, 1851 Frederiksberg C, Denmark"," 1851 "
"854",12.5475551247881,55.6808148435485,NA,8502522,"Thorvaldsensvej 8, 1871 Frederiksberg C, Denmark"," 1871 "
"855",12.5030211044953,55.6870685981071,NA,12400803,"C. F. Richs Vej 109, 2000 Frederiksberg, Denmark"," 2000 "
"856",12.5297206935187,55.694362182836,NA,13196143,"Fuglebakkevej 97, 2000 Frederiksberg, Denmark"," 2000 "
"857",12.5290149324356,55.6846827170054,NA,2538282,"Bentzonsvej 16, 2000 Frederiksberg, Denmark"," 2000 "
"858",12.5483668991798,55.6737943709983,NA,821484,"Frederiksberg Alle 16, 1820 Frederiksberg C, Denmark"," 1820 "
"859",12.5345512193059,55.6719004943892,NA,1109028,"Jacobys Alle 16, 1806 Frederiksberg C, Denmark"," 1806 "
"860",12.5521814526544,55.6778462341086,NA,10029389,"Niels Ebbesens Vej 10, 1911 Frederiksberg C, Denmark"," 1911 "
"861",12.5499678508338,55.6727719889129,NA,13060001,"Værnedamsvej 2, 1619 København V, Denmark"," 1619 "
"862",12.5515262791636,55.6789553082449,NA,761032,"Svend Trøsts Vej 6, 1911 Frederiksberg C, Denmark"," 1911 "
"863",12.5411370642067,55.6841891195373,NA,3387515,"Dr. Abildgaards Alle 3, 1955 Frederiksberg C, Denmark"," 1955 "
"864",12.5319906997393,55.6796125661514,NA,13706772,"Sylows Pl. 2, 2000 Frederiksberg, Denmark"," 2000 "
"865",12.5524499293079,55.6831238700606,NA,13508696,"Worsaaesvej 17, 1972 Frederiksberg C, Denmark"," 1972 "
"866",12.5518796372965,55.6848869299443,NA,1154973,"Åboulevard 31, 1960 Frederiksberg C, Denmark"," 1960 "
"867",12.5550888740531,55.6775243061188,NA,2158509,"Norsvej 6A, 1916 Frederiksberg C, Denmark"," 1916 "
"868",12.5320080627617,55.6838037356357,NA,13540850,"Rolfsvej 35, 2000 Frederiksberg, Denmark"," 2000 "
"869",12.5348002627642,55.6754019077787,NA,8396926,"Maglekildevej 18, 1853 Frederiksberg C, Denmark"," 1853 "
"870",12.5418615824525,55.6740061191714,NA,10820966,"Frederiksberg Alle 50, 1820 Frederiksberg C, Denmark"," 1820 "
"871",12.5465751673935,55.6790920749945,NA,12785853,"Harsdorffsvej 2A, 1874 Frederiksberg C, Denmark"," 1874 "
"872",12.5377143634134,55.6861987868913,NA,13374418,"Godthåbsvej 10C, 2000 Frederiksberg, Denmark"," 2000 "
"873",12.5314967795841,55.6866339452815,NA,11015973,"Langelandsvej 52, 2000 Frederiksberg, Denmark"," 2000 "
"874",12.5364838052219,55.6733742256816,NA,1347470,"Frydendalsvej 7, 1809 Frederiksberg C, Denmark"," 1809 "
"875",12.5308350904244,55.6709748222427,NA,12653326,"Roskildevej 10, 2000 Frederiksberg, Denmark"," 2000 "
"876",12.5340269431421,55.6712025063756,NA,1446963,"Asmussens Alle 2, 1808 Frederiksberg C, Denmark"," 1808 "
"877",12.5390632890333,55.6790704111487,NA,8640322,"Grundtvigs Sidevej 8, 1865 Frederiksberg C, Denmark"," 1865 "
"878",12.5539108628923,55.6792726771402,NA,1344750,"Forchhammersvej 5, 1920 Frederiksberg C, Denmark"," 1920 "
"879",12.4776239874054,55.698989335389,NA,11104244,"Solrødvej 10, 2700 Brønshøj, Denmark"," 2700 "
"880",12.4886176672748,55.7038122555369,NA,13230663,"Hvalsøvej 40, 2700 Brønshøj, Denmark"," 2700 "
"881",12.4970541839537,55.7043865911098,NA,12830462,"Rytterskolehøj 6, 2700 Brønshøj, Denmark"," 2700 "
"882",12.4974776821219,55.6983449788831,NA,13648306,"Beldringevej 4, 2700 Brønshøj, Denmark"," 2700 "
"883",12.5110557823288,55.706732807579,NA,11807296,"Hyrdevangen 16, 2700 Brønshøj, Denmark"," 2700 "
"884",12.5108297290769,55.7067352770714,NA,13458918,"Hyrdevangen 14, 2700 Brønshøj, Denmark"," 2700 "
"885",12.4672263739818,55.7166093150223,NA,8753247,"Muldager 34, 2700 Brønshøj, Denmark"," 2700 "
"886",12.4608956248023,55.7131564956427,NA,4536708,"Banefløjen 3, 2700 Brønshøj, Denmark"," 2700 "
"887",12.5097293211065,55.7102208583874,NA,4139468,"Stubbevangen 7, 2700 Brønshøj, Denmark"," 2700 "
"888",12.4969131573041,55.7035019783125,NA,6970142,"Elmelundevej 15, 2700 Brønshøj, Denmark"," 2700 "
"889",12.4640830693343,55.7062765382856,NA,10652728,"Østerlågen 7, 2700 Brønshøj, Denmark"," 2700 "
"890",12.584002722633,55.7045316323862,NA,10779239,"Skanderborggade, 2100 København Ø, Denmark"," 2100 "
"891",12.5784222608465,55.7087611693923,NA,11233142,"Kertemindegade 9, 2100 København Ø, Denmark"," 2100 "
"892",12.5795886241717,55.7017876259421,NA,12184038,"J. E. Ohlsens Gade 11, 2100 København Ø, Denmark"," 2100 "
"893",12.5752026821692,55.7124776063489,NA,13429339,"Nygårdsvej 9, 2100 København Ø, Denmark"," 2100 "
"894",12.5846302237518,55.7061739412045,NA,13472289,"Silkeborggade 20, 2100 København Ø, Denmark"," 2100 "
"895",12.5648337068199,55.7146600481236,NA,13593015,"Borgervænget 9A, 2100 København Ø, Denmark"," 2100 "
"896",12.5693931513786,55.6937053594185,NA,10932070,"Ryesgade 51, 2100 København Ø, Denmark"," 2100 "
"897",12.587740474239,55.7091556574662,NA,13485331,"Ringkøbinggade 11, 2100 København Ø, Denmark"," 2100 "
"898",12.5773967182831,55.7013315834892,NA,9257713,"Østerbrogade 49A, 2100 København Ø, Denmark"," 2100 "
"899",12.5837484391815,55.7055361550383,NA,13088447,"Skanderborggade 2, 2100 København Ø, Denmark"," 2100 "
"900",12.5967371936344,55.7084134880651,NA,8858475,"Dunkerquegade, 2150 Nordhavn, Denmark"," 2150 "
"901",12.5797427454423,55.705991040548,NA,10068967,"Århusgade 32, 2100 København Ø, Denmark"," 2100 "
"902",12.5826379848886,55.707866093185,NA,13307793,"Løgstørgade 21, 2100 København Ø, Denmark"," 2100 "
"903",12.5657090624654,55.7105467135511,NA,13176930,"Nygårdsvej 60, 2100 København Ø, Denmark"," 2100 "
"904",12.6003948661952,55.7092971774012,NA,4591427,"Sundkaj 7, 2100 København Ø, Denmark"," 2100 "
"905",12.5755413595492,55.6980365123209,NA,3313443,"Blegdamsvej 122, 2100 København Ø, Denmark"," 2100 "
"906",12.5889883785236,55.6996006461729,NA,4065305,"Steen Billes Gade 4, 2100 København Ø, Denmark"," 2100 "
"907",12.5914337437669,55.7055405005755,NA,13468731,"Kalkbrænderihavnsgade, 2100 København Ø, Denmark"," 2100 "
"908",12.5922992465252,55.6709377313419,NA,1310282,"Amagergade 11A, 1423 København K, Denmark"," 1423 "
"909",12.5897306642016,55.6879368575882,NA,5832268,"Tigergade 13, 1321 København K, Denmark"," 1321 "
"910",12.5712675202871,55.6906261248273,NA,6763693,"Øster Søgade 36, 1357 København K, Denmark"," 1357 "
"911",12.5713880027149,55.6819681668741,NA,8548537,"Nørregade 36, 1165 København K, Denmark"," 1165 "
"912",12.5947928747215,55.6758201490937,NA,10024762,"Wilders Pl. 15D, 1403 København K, Denmark"," 1403 "
"913",12.5671562462939,55.6809938453534,NA,1390151,"Nørre Voldgade 1, 1358 København K, Denmark"," 1358 "
"914",12.5991110345029,55.6768455175473,NA,1586658,"Bodenhoffs Pl. 5, 1430 København K, Denmark"," 1430 "
"915",12.5638520812507,55.6862471263022,NA,6218172,"Søtorvet, 1371 København, Denmark"," 1371 "
"916",12.6141515371441,55.686345717552,NA,3953772,"Luftmarinegade, 1432 København K, Denmark"," 1432 "
"917",12.57224395214,55.6764729070787,NA,11843528,"Lavendelstræde 1, 1462 København K, Denmark"," 1462 "
"918",12.5833046194872,55.6769864393017,NA,4032205,"Holmens Kanal 22, 1066 København K, Denmark"," 1066 "
"919",12.5900750447883,55.6706670816765,NA,12348602,"Dronningensgade 16A, 1420 København K, Denmark"," 1420 "
"920",12.5745594416323,55.6912749701029,NA,10201611,"Abildgaardsgade 21, 2100 København Ø, Denmark"," 2100 "
"921",12.5795121726166,55.6829788733716,NA,12235522,"Gothersgade 53, 1123 København K, Denmark"," 1123 "
"922",12.5752806207275,55.6895849379528,NA,586421,"Stockholmsgade 3, 2100 København Ø, Denmark"," 2100 "
"923",12.5794923415917,55.6815898474113,NA,1304559,"Møntergade 10A, 1116 København K, Denmark"," 1116 "
"924",12.585162490173,55.6810969699214,NA,8978187,"Kongens Nytorv 28, 1050 København K, Denmark"," 1050 "
"925",12.5743694625933,55.6811924007224,NA,9894955,"Peder Hvitfeldts Stræde 4, 1173 København K, Denmark"," 1173 "
"926",12.590188767339,55.6718839042231,NA,13597558,"Steinfass House, 1415 København, Denmark"," 1415 "
"927",12.6071465294816,55.6841281899505,NA,5313803,"Danneskiold-Samsøes Allé, 1439 København K, Denmark"," 1439 "
"928",12.6000048924026,55.6751016884172,NA,4523794,"Psyak 37, 1440 København K, Denmark"," 1440 "
"929",12.5908079907707,55.6787609109734,NA,489151,"Herluf Trolles Gade 19, 1052 København K, Denmark"," 1052 "
"930",12.5763594035584,55.6916800900966,NA,4584679,"Øster Farimagsgade 45A, 2100 København Ø, Denmark"," 2100 "
"931",12.563131989452,55.6826248741094,NA,12776104,"Kjeld Langes Gade 5C, 1367 København K, Denmark"," 1367 "
"932",12.5843965306992,55.6868896895036,NA,11923920,"Kronprinsessegade 56, 1306 København K, Denmark"," 1306 "
"933",12.5901984751687,55.6881714197462,NA,11531304,"Hammerensgade 2, 1267 København K, Denmark"," 1267 "
"934",12.598471486084,55.6761102280538,NA,13401095,"Andreas Bjørns Gade 24, 1428 København K, Denmark"," 1428 "
"935",12.5709832358854,55.6893379116812,NA,13722704,"Gammeltoftsgade 18, 1355 København K, Denmark"," 1355 "
"936",12.5857062697031,55.6785618299397,NA,13723106,"Holmens Kanal 2, 1060 København K, Denmark"," 1060 "
"937",12.5627704144033,55.6815787074428,NA,5203533,"Nansensgade 13, 1366 København K, Denmark"," 1366 "
"938",12.5947537354861,55.6743741145996,NA,12947491,"Overgaden Oven Vandet 62A, 1415 København K, Denmark"," 1415 "
"939",12.561469431817,55.6814956146267,NA,932537,"Nørre Søgade 49, 1370 København K, Denmark"," 1370 "
"940",12.5743322323884,55.6820053609547,NA,11984888,"Købmagergade 65E, 1150 København K, Denmark"," 1150 "
"941",12.5868060301079,55.6824788869405,NA,12966871,"Bredgade 25F, 1260 København K, Denmark"," 1260 "
"942",12.589441469469,55.6836980423303,NA,6804367,"Bredgade 43, 1260 København K, Denmark"," 1260 "
"943",12.5767074407375,55.6920754175191,NA,13095418,"Øster Farimagsgade 51, 2100 København Ø, Denmark"," 2100 "
"944",12.5709179258646,55.6779950858924,NA,1069482,"Vestergade 8, 1456 København K, Denmark"," 1456 "
"945",12.5868619779865,55.6860726492963,NA,10932906,"Klerkegade 2, 1308 København K, Denmark"," 1308 "
"946",12.5822912261281,55.6828212984692,NA,9064061,"Adelgade 5, 1304 København K, Denmark"," 1304 "
"947",12.5760157351463,55.6772286415994,NA,10964155,"Kompagnistræde 15B, 1208 København K, Denmark"," 1208 "
"948",12.5820237735221,55.6814481951359,NA,12930645,"Store Regnegade 12, 1110 København K, Denmark"," 1110 "
"949",12.589332754651,55.6860616706485,NA,13650874,"Fredericiagade 33A, 1310 København K, Denmark"," 1310 "
"950",12.588854652599,55.6709412082396,NA,1528183,"Overgaden Oven Vandet 14, 1415 København K, Denmark"," 1415 "
"951",12.5916326427138,55.6815441799848,NA,13164023,"Sankt Annæ Pl. 15, 1250 København K, Denmark"," 1250 "
"952",12.5699878626876,55.6891024160155,NA,7490437,"Center for Sundhed og Samfund, 1353 København K, Denmark"," 1353 "
"953",12.5925232712919,55.6749522375415,NA,2868839,"Bådsmandsstræde 5, 1407 København K, Denmark"," 1407 "
"954",12.5946503359822,55.6854626682336,NA,1099290,"Amaliegade 36, 1256 København K, Denmark"," 1256 "
"955",12.5850972981514,55.6880937575187,NA,13612618,"Sankt Pauls Gade 50, 1306 København K, Denmark"," 1306 "
"956",12.5714642358504,55.6782768737839,NA,13583763,"Gammeltorv 18, 1457 København K, Denmark"," 1457 "
"957",12.5979969175321,55.674323112515,NA,11093821,"Psyak 3, 1440 København K, Denmark"," 1440 "
"958",12.5876102321312,55.6850228157571,NA,13158430,"Store Kongensgade 69A, 1264 København K, Denmark"," 1264 "
"959",12.5882999848776,55.6854453532341,NA,11747783,"Store Kongensgade 79A, 1264 København K, Denmark"," 1264 "
"960",12.5856673750425,55.6789661482751,NA,10372242,"Kongens Nytorv 13, 1050 København K, Denmark"," 1050 "
"961",12.570475906286,55.6862384137942,NA,11943287,"Øster Farimagsgade 2A, 1353 København K, Denmark"," 1353 "
"962",12.5694575486645,55.6825034893615,NA,11377709,"Nørre Voldgade 5, 1358 København K, Denmark"," 1358 "
"963",12.5795171154902,55.6947695095974,NA,13122431,"Øster Farimagsgade 48, 2100 København Ø, Denmark"," 2100 "
"964",12.567926466166,55.6839074034902,NA,13646899,"Vendersgade 9, 1363 København K, Denmark"," 1363 "
"965",12.5684317716529,55.6852181654597,NA,10893377,"Nørre Farimagsgade 63, 1364 København K, Denmark"," 1364 "
"966",12.5640641916678,55.6861387147241,NA,11251712,"Søtorvet, 1371 København, Denmark"," 1371 "
"967",12.5896731033083,55.6856680184492,NA,5516589,"Store Kongensgade 92C, 1264 København K, Denmark"," 1264 "
"968",12.5941649076969,55.6725343338832,NA,5024498,"Sankt Annæ Gade 29, 1420 København K, Denmark"," 1420 "
"969",12.560529732717,55.6790561800003,NA,8661724,"Nyropsgade 18Y, 1602 København V, Denmark"," 1602 "
"970",12.5757079829133,55.6773803240449,NA,12724934,"Kompagnistræde 14A, 1208 København K, Denmark"," 1208 "
"971",12.5652853404338,55.6858429171477,NA,12756454,"Søtorvet, 1371 København, Denmark"," 1371 "
"972",12.5872789291149,55.6883152852162,NA,13313776,"Gernersgade 24, 1319 København K, Denmark"," 1319 "
"973",12.5645209520805,55.6823690218069,NA,13706399,"Schacksgade 10, 1365 København K, Denmark"," 1365 "
"974",12.5702783627487,55.6712573839453,NA,9340419,"Stoltenbergsgade 5, 1576 København V, Denmark"," 1576 "
"975",12.5857236719876,55.6890375132494,NA,1843185,"Kronprinsessegade 59C, 1306 København K, Denmark"," 1306 "
"976",12.5712445526415,55.690281595294,NA,3579344,"Rørholmsgade 24, 1352 København K, Denmark"," 1352 "
"977",12.5671951483163,55.6827623523215,NA,13459332,"Rømersgade 1, 1362 København K, Denmark"," 1362 "
"978",12.5692955536813,55.6772973709507,NA,6478332,"Vestergade 22, 1456 København K, Denmark"," 1456 "
"979",12.5956406049389,55.6740116818857,NA,530440,"Bådsmandsstræde 21, 1407 København K, Denmark"," 1407 "
"980",12.5779057925441,55.6956361922863,NA,13277180,"Øster Søgade 106, 2100 København Ø, Denmark"," 2100 "
"981",12.5851024169509,55.6837744939035,NA,891701,"Borgergade 15C, 1300 København K, Denmark"," 1300 "
"982",12.5915139338212,55.672618070635,NA,989878,"Overgaden Oven Vandet 40, 1415 København K, Denmark"," 1415 "
"983",12.5679676048958,55.6846113388316,NA,11273191,"Nørre Farimagsgade 70, 1364 København K, Denmark"," 1364 "
"984",12.5892002360114,55.6743773810927,NA,10148056,"Asiatisk Pl. 2, 1401 København, Denmark"," 1401 "
"985",12.5959033328852,55.6760186405292,NA,727257,"Strandgade 96, 1401 København K, Denmark"," 1401 "
"986",12.569253228627,55.6721775330103,NA,6001737,"Tietgensgade 20, 1704 København V, Denmark"," 1704 "
"987",12.5736124984671,55.6771862556438,NA,13636816,"Nytorv 15, 1450 København K, Denmark"," 1450 "
"988",12.5715058079341,55.6884627713016,NA,13726796,"Gammeltoftsgade 13, 1355 København K, Denmark"," 1355 "
"989",12.5932947352735,55.6854576196806,NA,4919520,"Amaliegade 21B, 1256 København K, Denmark"," 1256 "
"990",12.5765803899662,55.6938808518088,NA,13439135,"Voldmestergade 30, 2100 København Ø, Denmark"," 2100 "
"991",12.575812639603,55.682790866058,NA,10916178,"Hauser Pl. 16D, 1127 København K, Denmark"," 1127 "
"992",12.5830124642456,55.6862520937884,NA,11299477,"Sølvgade 14B, 1307 København K, Denmark"," 1307 "
"993",12.5684821182973,55.671124975975,NA,9734812,"Bernstorffsgade 17, 1577 København V, Denmark"," 1577 "
"994",12.5721676564363,55.6783445196572,NA,13567961,"Gammeltorv 24, 1456 København K, Denmark"," 1456 "
"995",12.5962395107541,55.6765326028916,NA,1406031,"Strandgade 100, 1401 København K, Denmark"," 1401 "
"996",12.5609227091446,55.6808406151987,NA,11469534,"Gyldenløvesgade 25, 1600 København V, Denmark"," 1600 "
"997",12.5579595679569,55.7000315060698,NA,13354913,"Jagtvej 128, 2200 København N, Denmark"," 2200 "
"998",12.5594256451143,55.6903918878422,NA,1398989,"Egegade 2, 2200 København N, Denmark"," 2200 "
"999",12.5508935403303,55.6973411830325,NA,8480773,"Odins Tværgade 4, 2200 København N, Denmark"," 2200 "
"1000",12.5508247484419,55.704723492268,NA,13530525,"Haraldsgade 21, 2200 København N, Denmark"," 2200 "
"1001",12.5565557781183,55.6963272162828,NA,13184410,"Fensmarkgade 24, 2200 København N, Denmark"," 2200 "
"1002",12.5566474902254,55.6838638196126,NA,6269509,"Tømrergade 4, 2200 København N, Denmark"," 2200 "
"1003",12.5450752879399,55.6945765939217,NA,3243814,"Julius Bloms Gade 22B, 2200 København N, Denmark"," 2200 "
"1004",12.5563989155905,55.6953417045848,NA,4453710,"Sjællandsgade 38, 2200 København N, Denmark"," 2200 "
"1005",12.5645666673074,55.6923060944757,NA,3764932,"Blegdamsvej 20, 2200 København N, Denmark"," 2200 "
"1006",12.5504345293055,55.6952027894272,NA,13035991,"Fensmarkgade 71, 2200 København N, Denmark"," 2200 "
"1007",12.5576189396408,55.6909023027003,NA,13494600,"Birkegade 25, 2200 København N, Denmark"," 2200 "
"1008",12.5444879776828,55.6998200856004,NA,12805623,"Bragesgade 14, 2200 København N, Denmark"," 2200 "
"1009",12.5571905142708,55.693046224858,NA,7595677,"Agnes Henningsens Vej 9, 2200 København N, Denmark"," 2200 "
"1010",12.5447189544558,55.692858723579,NA,13273234,"Bjelkes Allé 17, 2200 København N, Denmark"," 2200 "
"1011",12.5507932152574,55.6973973313838,NA,3659604,"Odins Tværgade 4, 2200 København N, Denmark"," 2200 "
"1012",12.5447704995419,55.6893792556319,NA,1135941,"Hans Egedes Gade 2, 2200 København N, Denmark"," 2200 "
"1013",12.5568998714234,55.6887320486995,NA,12734192,"Stengade 5, 2200 København N, Denmark"," 2200 "
"1014",12.5469362247181,55.6879490399942,NA,4083886,"Jesper Brochmands Gade 6, 2200 København N, Denmark"," 2200 "
"1015",12.5609717430129,55.6867602167988,NA,13394420,"Baggesensgade 6, 2200 København N, Denmark"," 2200 "
"1016",12.5582645158928,55.6860688519971,NA,4017448,"Blågårdsgade 29E, 2200 København N, Denmark"," 2200 "
"1017",12.5505277592438,55.698426913473,NA,7882037,"Mimersgade 18, 2200 København N, Denmark"," 2200 "
"1018",12.5548530014563,55.6993066815825,NA,11714183,"Jagtvej 120, 2200 København N, Denmark"," 2200 "
"1019",12.5542726004584,55.6894923344403,NA,13483283,"Solitudevej 5, 2200 København N, Denmark"," 2200 "
"1020",12.5502285961441,55.7047559615695,NA,3880972,"Sigynsgade 34, 2200 København N, Denmark"," 2200 "
"1021",12.5457537156856,55.6925105263777,NA,1161191,"Bjelkes Allé 6B, 2200 København N, Denmark"," 2200 "
"1022",12.5506102422556,55.7016925305133,NA,9056448,"Tagensvej 71, 2200 København N, Denmark"," 2200 "
"1023",12.5669358973292,55.6929577307769,NA,5167395,"Fredensgade 15A, 2200 København N, Denmark"," 2200 "
"1024",12.5587089805287,55.6858024379111,NA,4234367,"Blågårdsgade 29E, 2200 København N, Denmark"," 2200 "
"1025",12.545004260975,55.7019127006218,NA,13507024,"Hamletsgade 14A, 2200 København N, Denmark"," 2200 "
"1026",12.540391535194,55.6964983815847,NA,5181519,"Krogerupgade 53, 2200 København N, Denmark"," 2200 "
"1027",12.5597978340385,55.6858587531108,NA,1805357,"Wesselsgade 12, 2200 København N, Denmark"," 2200 "
"1028",12.5558058552207,55.6824548377346,NA,1279944,"Herman Triers Pl. 2, 1631 København V, Denmark"," 1631 "
"1029",12.540592644459,55.69696586599,NA,13577113,"Krogerupgade 65, 2200 København N, Denmark"," 2200 "
"1030",12.5561778331541,55.689396225942,NA,13500680,"Nørrebrogade 51, 2200 København N, Denmark"," 2200 "
"1031",12.5568195495696,55.6846015760736,NA,13107652,"Murergade 18, 2200 København N, Denmark"," 2200 "
"1032",12.5408181677896,55.7062606940296,NA,13625718,"Fyrbødervej 10, 2400 København NV, Denmark"," 2400 "
"1033",12.5373027048103,55.7121081044167,NA,13389566,"Charlotte Muncks Vej 4, 2400 København NV, Denmark"," 2400 "
"1034",12.5359373814981,55.7136783786911,NA,10559697,"Charlotte Muncks Vej 27, 2400 København NV, Denmark"," 2400 "
"1035",12.5313465296311,55.7094603217867,NA,6630848,"Frederiksborgvej 95, 2400 København NV, Denmark"," 2400 "
"1036",12.5362739050491,55.7194430355994,NA,1307647,"Oldfuxvej 24, 2400 København NV, Denmark"," 2400 "
"1037",12.488729579024,55.6642394722536,NA,2844814,"Nakskovvej 99A, 2500 Valby, Denmark"," 2500 "
"1038",12.5208849672735,55.6641326919458,NA,11332089,"Banevolden 36, 2500 Valby, Denmark"," 2500 "
"1039",12.5188016227717,55.6658186920016,NA,10025864,"Valhøjvej 11, 2500 Valby, Denmark"," 2500 "
"1040",12.5128747667433,55.6606484334982,NA,3829994,"Valby Maskinfabriksvej, 2500 København, Denmark"," 2500 "
"1041",12.494479917922,55.6663047280495,NA,10055085,"Nybovej 19, 2500 Valby, Denmark"," 2500 "
"1042",12.5237753713768,55.6600186239506,NA,7656767,"Valbygårdsvej 41, 2500 Valby, Denmark"," 2500 "
"1043",12.4961910624448,55.6682643819766,NA,13323785,"Vestre Allé 14, 2500 Valby, Denmark"," 2500 "
"1044",12.5192289521738,55.6657270729826,NA,12504998,"Valhøjvej 15, 2500 Valby, Denmark"," 2500 "
"1045",12.5003054954255,55.6619022471775,NA,12307106,"Panumsvej 29, 2500 Valby, Denmark"," 2500 "
"1046",12.5109011749343,55.6669613729858,NA,10569240,"Sylviavej 14, 2500 Valby, Denmark"," 2500 "
"1047",12.5172660619497,55.662306930692,NA,7151734,"Toftegårds Pl. 8, 2500 Valby, Denmark"," 2500 "
"1048",12.5016031086641,55.6606892892418,NA,2834713,"Saxtorphsvej 4, 2500 Valby, Denmark"," 2500 "
"1049",12.5099285872888,55.6687133533295,NA,10714343,"Lauravej 21, 2500 Valby, Denmark"," 2500 "
"1050",12.5105886829629,55.6678505376394,NA,13294026,"Lauravej 3-5, 2500 Valby, Denmark"," 2500 "
"1051",12.4853744487224,55.6552564911984,NA,11877059,"Gårdstedet 11, 2500 Valby, Denmark"," 2500 "
"1052",12.5025229148717,55.6462311066251,NA,7845461,"Harrestrup Allé 9, 2500 Valby, Denmark"," 2500 "
"1053",12.5218602795453,55.6616647634087,NA,11217086,"Kjeldsgårdsvej 25C, 2500 Valby, Denmark"," 2500 "
"1054",12.5101775077575,55.6577150080326,NA,8593177,"Lily Brobergs Vej 45, 2500 Valby, Denmark"," 2500 "
"1055",12.4845990699673,55.6675937134497,NA,13636649,"Havebo 18, 2500 Valby, Denmark"," 2500 "
"1056",12.540568176087,55.6675656240314,NA,12744503,"Ejderstedgade 6, 1761 København V, Denmark"," 1761 "
"1057",12.5482607102111,55.6638264750997,NA,968279,"Ingerslevsgade 150, 1705 København V, Denmark"," 1705 "
"1058",12.5280910179527,55.6531995917055,NA,13620530,"Sjælør Blvd. 79, 2500 Valby, Denmark"," 2500 "
"1059",12.5394521648926,55.6665560967278,NA,11003217,"Ny Carlsberg Vej 38, 1760 København V, Denmark"," 1760 "
"1060",12.5525357118193,55.6679764587011,NA,10029729,"Estlandsgade 4, 1724 København V, Denmark"," 1724 "
"1061",12.5573209887539,55.6673511157159,NA,6744198,"Skelbækgade 5, 1717 København V, Denmark"," 1717 "
"1062",12.5527541291837,55.6701947256484,NA,11887691,"Dannebrogsgade 28, 1660 København V, Denmark"," 1660 "
"1063",12.5397023995035,55.6673928296726,NA,1263540,"Vesterfælledvej 47, 1750 København V, Denmark"," 1750 "
"1064",12.5499041345101,55.6724716169056,NA,13165594,"Vesterbrogade 75, 1620 København V, Denmark"," 1620 "
"1065",12.5561588417363,55.6700816424243,NA,4446336,"Eskildsgade 40, 1657 København V, Denmark"," 1657 "
"1066",12.5433256716751,55.6685123601332,NA,1298809,"Rejsbygade 7, 1759 København V, Denmark"," 1759 "
"1067",12.5465749854938,55.6697569193727,NA,1386260,"Matthæusgade 50, 1666 København V, Denmark"," 1666 "
"1068",12.5529809702456,55.6662826943793,NA,9108300,"Dybbølsgade 37, 1721 København V, Denmark"," 1721 "
"1069",12.5645881792875,55.6714766030956,NA,13367426,"Reventlowsgade 11, 1651 København V, Denmark"," 1651 "
"1070",12.54872067426,55.6470336678607,NA,3013748,"Thad Jones Vej 4, 2450 København SV, Denmark"," 2450 "
"1071",12.5413984850311,55.6707188475029,NA,12909309,"Vesterbrogade 140B, 1620 København V, Denmark"," 1620 "
"1072",12.5524616574861,55.671723951972,NA,5444666,"Westend 11, 1661 København V, Denmark"," 1661 "
"1073",12.5485179699909,55.6688915011125,NA,8647814,"Valdemarsgade 24, 1665 København V, Denmark"," 1665 "
"1074",12.5523443468927,55.6454727954268,NA,11203695,"Ernie Wilkins Vej 23, 2450 København SV, Denmark"," 2450 "
"1075",12.5522793137354,55.6673764620415,NA,11530426,"Letlandsgade 5, 1723 København V, Denmark"," 1723 "
"1076",12.5478876781316,55.6645412974219,NA,13593913,"Knud Lavards Gade 4, 1730 København V, Denmark"," 1730 "
"1077",12.5477075068424,55.6708612888687,NA,2549576,"Valdemarsgade 12, 1666 København, Denmark"," 1666 "
"1078",12.5652915211792,55.6621926094259,NA,13493970,"Havneholmen 33, 1561 København V, Denmark"," 1561 "
"1079",12.5434267155961,55.6705388155181,NA,9725138,"Tøndergade 8, 1752 København V, Denmark"," 1752 "
"1080",12.5468714111441,55.6666516257168,NA,12313805,"Kongshøjgade 4, 1675 København V, Denmark"," 1675 "
"1081",12.5558031007049,55.6662257043312,NA,13460606,"Krusågade 23, 1719 København V, Denmark"," 1719 "
"1082",12.5497635179361,55.6699652577567,NA,3891991,"Oehlenschlægersgade 30, 1663 København V, Denmark"," 1663 "
"1083",12.5503655787794,55.6662433225889,NA,3399870,"Oehlenschlægersgade 75, 1663 København V, Denmark"," 1663 "
"1084",12.5548671943546,55.6710005199844,NA,5660863,"Eskildsgade 14, 1657 København V, Denmark"," 1657 "
"1085",12.5488487880891,55.6723219592193,NA,9140858,"Vesterbrogade 81, 1620 København V, Denmark"," 1620 "
"1086",12.5470413715647,55.6645766003822,NA,548124,"Sønder Blvd. 95, 1720 København V, Denmark"," 1720 "
"1087",12.5449365574494,55.6715740408112,NA,4249364,"Vesterbrogade 110, 1620 København V, Denmark"," 1620 "
"1088",12.5596129619004,55.6717537552079,NA,1418234,"Abel Cathrines Gade 21B, 1654 København V, Denmark"," 1654 "
"1089",12.5479974480578,55.6654089254148,NA,5625229,"Flensborggade 61, 1669 København V, Denmark"," 1669 "
"1090",12.5406858004187,55.668502407778,NA,11621904,"Lyrskovgade 32, 1758 København V, Denmark"," 1758 "
"1091",12.5403554552936,55.6643905100545,NA,8031395,"Slesvigsgade 31, 1762 København V, Denmark"," 1762 "
"1092",12.5479652465977,55.6656235228929,NA,4574307,"Flensborggade 57, 1669 København V, Denmark"," 1669 "
"1093",12.5558325438434,55.6682383469981,NA,11817101,"Sønder Blvd. 16, 1720 København V, Denmark"," 1720 "
"1094",12.5478325716876,55.6670998297909,NA,4999981,"Dybbølsgade 70, 1721 København V, Denmark"," 1721 "
"1095",12.5529044126291,55.6666269534781,NA,2541947,"Sønder Blvd. 47, 1720 København V, Denmark"," 1720 "
"1096",12.5534475170619,55.6659829470238,NA,13683047,"Esbern Snares Gade 2, 1725 København V, Denmark"," 1725 "
"1097",12.5478957526408,55.6639774807939,NA,10797169,"Ingerslevsgade 152, 1705 København V, Denmark"," 1705 "
"1098",12.5563500746219,55.6711222745917,NA,13025375,"Gasværksvej 12B, 1656 København V, Denmark"," 1656 "
"1099",12.5598832992805,55.672201150699,NA,1590470,"Vesterbrogade 29G, 1620 København V, Denmark"," 1620 "
"1100",12.5481709576977,55.6688744476502,NA,4766434,"Mysundegade 5, 1668 København V, Denmark"," 1668 "
"1101",12.5418065947784,55.6700784580769,NA,13384283,"Amerikavej 3A, 1756 København V, Denmark"," 1756 "
"1102",12.5504978339308,55.6661947771737,NA,13024130,"Oehlenschlægersgade 77, 1663 København V, Denmark"," 1663 "
"1103",12.5546189240191,55.6669016644547,NA,13351806,"Krusågade 6, 1719 København V, Denmark"," 1719 "
"1104",12.5428077954654,55.6692244824741,NA,13055913,"Amerikavej 15A, 1756 København V, Denmark"," 1756 "
"1105",12.5426617310327,55.6687863939832,NA,1161040,"Rejsbygade 8A, 1759 København V, Denmark"," 1759 "
"1106",12.5622130648419,55.6708781759961,NA,12044599,"Halmtorvet 7, 1700 København V, Denmark"," 1700 "
"1107",12.5403195361271,55.6706415500435,NA,13448196,"Vesterbrogade 148L, 1620 København V, Denmark"," 1620 "
"1108",12.5416388582014,55.6672708926472,NA,10957713,"Ejderstedgade 1, 1761 København V, Denmark"," 1761 "
"1109",12.5426109716746,55.6520079628169,NA,12071356,"A. C. Meyers Vænge 8, 2450 København SV, Denmark"," 2450 "
"1110",12.5438228608936,55.6635561642797,NA,13610993,"Palnatokesgade 4, 1733 København V, Denmark"," 1733 "
"1111",12.54909179407,55.6653917811226,NA,5516099,"Sønder Blvd. 74, 1720 København V, Denmark"," 1720 "
"1112",12.5496960617625,55.6638083177552,NA,5647043,"Ingerslevsgade 144, 1705 København V, Denmark"," 1705 "
"1113",12.5477150012935,55.6718426850373,NA,10037935,"Vesterbrogade 89A, 1620 København V, Denmark"," 1620 "
"1114",12.553731606282,55.6668328539679,NA,3647846,"Godsbanegade 2, 1721 København V, Denmark"," 1721 "
"1115",12.5406787547401,55.6660354140404,NA,1517217,"Ny Carlsberg Vej 35, 1760 København V, Denmark"," 1760 "
"1116",12.5504102174554,55.6666914929797,NA,5219938,"Dybbølsgade 49, 1721 København V, Denmark"," 1721 "
"1117",12.5469101710637,55.6716861083976,NA,6385896,"Vesterbrogade 95H, 1620 København V, Denmark"," 1620 "
"1118",12.5556690603836,55.668558517085,NA,13410525,"Absalonsgade 46, 1658 København V, Denmark"," 1658 "
"1119",12.5503407605182,55.650172382091,NA,13344225,"Teglholm Allé 9E, 2450 København SV, Denmark"," 2450 "
"1120",12.5548088710193,55.6657551443341,NA,8968731,"Godsbanegade 12, 1722 København V, Denmark"," 1722 "
"1121",12.5556618035395,55.6670635324058,NA,1055851,"Sommerstedgade 10-12, 1718 København V, Denmark"," 1718 "
"1122",12.5452178866081,55.6713641283667,NA,13638081,"Vesterbrogade 107, 1620 København V, Denmark"," 1620 "
"1123",12.5532073141073,55.6639232195702,NA,10492352,"Ingerslevsgade 123, 1705 København V, Denmark"," 1705 "
"1124",12.541063167375,55.6692341113295,NA,13506938,"Trøjborggade 3C, 1757 København V, Denmark"," 1757 "
"1125",12.5527491664014,55.6690781588233,NA,13670045,"Istedgade 90, 1650 København V, Denmark"," 1650 "
"1126",12.556256725139,55.6693230915481,NA,1413837,"Eskildsgade 56, 1657 København V, Denmark"," 1657 "
"1127",12.541575981545,55.6642883614503,NA,13274635,"Enghavevej 70, 1674 København V, Denmark"," 1674 "
"1128",12.5508164882914,55.6563983159394,NA,11341168,"Vasbygade 25, 2450 København SV, Denmark"," 2450 "
"1129",12.5527461790276,55.6677008955898,NA,1838211,"Dannebrogsgade 50, 1660 København V, Denmark"," 1660 "
"1130",12.5478921572847,55.6647226759257,NA,2092146,"Knud Lavards Gade 2, 1720 København V, Denmark"," 1720 "
"1131",12.543146941524,55.6636479150695,NA,13305250,"Sønder Blvd. 125, 1720 København V, Denmark"," 1720 "
"1132",12.5573948773808,55.6682495067797,NA,11010750,"Høkerboderne 16, 1712 København V, Denmark"," 1712 "
"1133",12.5549123033195,55.6683404975649,NA,12879499,"Skydebanegade 29, 1709 København V, Denmark"," 1709 "
"1134",12.5499591397159,55.6667962827135,NA,13206131,"Dybbølsgade 52, 1721 København V, Denmark"," 1721 "
"1135",12.5370361623894,55.6674515238451,NA,6029449,"Küchlersgade 55, 1774 København V, Denmark"," 1774 "
"1136",12.5455925920386,55.6649598216417,NA,12910934,"Røddinggade 7, 1735 København V, Denmark"," 1735 "
"1137",12.5537814162076,55.672071224692,NA,1737188,"Absalonsgade 8, 1658 København V, Denmark"," 1658 "
"1138",12.5901828624957,55.6461648727941,NA,10356333,"Rubingangen, 2300 København S, Denmark"," 2300 "
"1139",12.6085618220942,55.6470557369405,NA,3353147,"Lotusvej 54, 2300 København S, Denmark"," 2300 "
"1140",12.6051293835921,55.6535881637033,NA,13499152,"Peder Lykkes Vej 39, 2300 København S, Denmark"," 2300 "
"1141",12.6001336035589,55.6530148627913,NA,1211075,"Peder Skrivers Sti, 2300 København S, Denmark"," 2300 "
"1142",12.5712549316122,55.6602249070441,NA,9468484,"Axel Heides Gade 22, 2300 København S, Denmark"," 2300 "
"1143",12.5789018046637,55.6684415904741,NA,13527654,"Islands Brygge 12, 2300 København S, Denmark"," 2300 "
"1144",12.5720324651753,55.6612618364099,NA,9825283,"Erik Eriksens Gade 8, 2300 København S, Denmark"," 2300 "
"1145",12.5858655307004,55.662247693514,NA,5728275,"Njalsgade 78, 2300 København S, Denmark"," 2300 "
"1146",12.5794470627621,55.6624824801033,NA,7272969,"Artillerivej 80, 2300 København S, Denmark"," 2300 "
"1147",12.5813269564378,55.6352267987399,NA,3689508,"Ørestads Blvd. 55C, 2300 København S, Denmark"," 2300 "
"1148",12.5992267564553,55.6625547770748,NA,9915145,"Brigadevej 28A, 2300 København S, Denmark"," 2300 "
"1149",12.5912659710054,55.6357240070238,NA,2966084,"Kansasvej 3B, 2300 København S, Denmark"," 2300 "
"1150",12.6020025010435,55.652322513471,NA,12597159,"Englandsvej 57, 2300 København S, Denmark"," 2300 "
"1151",12.5850724282083,55.6368362041499,NA,4106504,"Høstgildevej 114, 2300 København S, Denmark"," 2300 "
"1152",12.6251614986961,55.6464532168229,NA,6290096,"Kastrupvej 167, 2300 København S, Denmark"," 2300 "
"1153",12.6245247637261,55.6465648847807,NA,5473878,"Kastrupvej 156, 2300 København S, Denmark"," 2300 "
"1154",12.6231912925024,55.6571933393642,NA,11538658,"Veronavej 14, 2300 København S, Denmark"," 2300 "
"1155",12.6181613018965,55.6656940344967,NA,5177293,"Nyrnberggade 18, 2300 København S, Denmark"," 2300 "
"1156",12.6107762304562,55.6548577901463,NA,6024521,"Keplersgade 12, 2300 København S, Denmark"," 2300 "
"1157",12.6278670264618,55.6621588377088,NA,13373876,"Øresundsvej 143, 2300 København S, Denmark"," 2300 "
"1158",12.6103556343761,55.6614209760256,NA,9590303,"Lyongade 44, 2300 København S, Denmark"," 2300 "
"1159",12.634786012541,55.6568329165857,NA,2444371,"Italiensvej 88, 2300 København S, Denmark"," 2300 "
"1160",12.6081517525682,55.6583240688116,NA,6967419,"Øresundsvej 3, 2300 København S, Denmark"," 2300 "
"1161",12.6339922281342,55.6597134725664,NA,1033829,"Amager Strandvej 124A, 2300 København S, Denmark"," 2300 "
"1162",12.6300983682193,55.6611980685537,NA,13681520,"Krimsvej 7, 2300 København S, Denmark"," 2300 "
"1163",12.6142885314937,55.6525783230634,NA,3453263,"Parmagade 24, 2300 København S, Denmark"," 2300 "
"1164",12.6020473107841,55.6640482753323,NA,9970982,"Holmbladsgade 6, 2300 København S, Denmark"," 2300 "
"1165",12.6274858867951,55.6643406016561,NA,2363422,"Ved Amagerbanen 41, 2300 København S, Denmark"," 2300 "
"1166",12.6087314145278,55.6573272132926,NA,11568262,"Amagerbrogade 127, 2300 København S, Denmark"," 2300 "
"1167",12.5129702084553,55.6921119700236,NA,13599712,"Vendsysselvej 3, 2720 Vanløse, Denmark"," 2720 "
"1168",12.5177870198693,55.6956926557486,NA,7685235,"Brombærvej 4, 2400 København NV, Denmark"," 2400 "
"1169",12.4930409998191,55.6957347411293,NA,12689856,"Bækkeskovvej 17, 2700 Brønshøj, Denmark"," 2700 "
"1170",12.5104249249375,55.6906608121762,NA,1568727,"A. F. Beyers Vej 25, 2720 Vanløse, Denmark"," 2720 "
"1171",12.5145250857248,55.6907251200623,NA,8318070,"Grøndals Parkvej 6A, 2720 Vanløse, Denmark"," 2720 "
"1172",12.5159587643567,55.6914307028887,NA,13686375,"Grøndalsvænge Allé 72, 2400 København NV, Denmark"," 2400 "
"1173",12.4864321742013,55.6941742426103,NA,5357968,"Tryggevældevej 16A, 2720 Vanløse, Denmark"," 2720 "
"1174",12.4962896502516,55.6915488528887,NA,4502823,"Skibelundvej 1, 2720 Vanløse, Denmark"," 2720 "
"1175",12.4908242957022,55.6955792385276,NA,6173817,"Slotsherrensvej 18, 2720 Vanløse, Denmark"," 2720 "
"1176",12.5121100693926,55.6933034639544,NA,13151978,"Frederiksgårds Allé 1, 2720 Vanløse, Denmark"," 2720 "
"1177",12.4987548758022,55.6964427131081,NA,6988423,"Brønshøjvej 72E, 2700 Brønshøj, Denmark"," 2700 "
"1178",12.4825463834986,55.6512305109241,NA,2587635,"Krogstens Alle 7, 2650 Hvidovre, Denmark"," 2650 "
